{"type":"FeatureCollection","features":[{"type":"Feature","properties":{"clase":1,"profundidad":"hasta 0,5 m"},"geometry":{"type":"MultiPolygon","coordinates":[[[[-58.19565,-32.17009],[-58.19602,-32.16944],[-58.19537,-32.16963],[-58.19565,-32.17009]]],[[[-58.19185,-32.16898],[-58.19194,-32.16981],[-58.19204,-32.16907],[-58.19269,-32.16907],[-58.1925,-32.16852],[-58.19241,-32.16889],[-58.19185,-32.16898]]],[[[-58.19685,-32.16778],[-58.19537,-32.16722],[-58.19565,-32.16796],[-58.19685,-32.16778]]],[[[-58.1912,-32.16639],[-58.19139,-32.1663],[-58.19139,-32.16583],[-58.1912,-32.16583],[-58.1912,-32.16639]]],[[[-58.18611,-32.16176],[-58.1863,-32.16148],[-58.18611,-32.16046],[-58.18611,-32.16176]]],[[[-58.16731,-32.11148],[-58.16759,-32.11093],[-58.16731,-32.11074],[-58.16731,-32.11148]]],[[[-58.16759,-32.11009],[-58.1675,-32.10944],[-58.16731,-32.11028],[-58.16759,-32.11009]]],[[[-58.16694,-32.10713],[-58.16759,-32.1075],[-58.1675,-32.10713],[-58.16694,-32.10713]]],[[[-58.15657,-32.34731],[-58.15472,-32.34648],[-58.15444,-32.34657],[-58.15528,-32.34676],[-58.15574,-32.34741],[-58.15657,-32.34731]]],[[[-58.15722,-32.34778],[-58.15815,-32.34824],[-58.15806,-32.34787],[-58.15722,-32.34778]]],[[[-58.1588,-32.3488],[-58.15852,-32.34815],[-58.15815,-32.34824],[-58.1588,-32.3488]]],[[[-58.13981,-32.33176],[-58.1388,-32.33139],[-58.14,-32.33222],[-58.13981,-32.33176]]],[[[-58.13435,-32.33519],[-58.13528,-32.33528],[-58.13528,-32.33509],[-58.13509,-32.335],[-58.13435,-32.33519]]],[[[-58.13528,-32.33444],[-58.13546,-32.33491],[-58.13583,-32.33491],[-58.13556,-32.33472],[-58.13565,-32.33435],[-58.13528,-32.33444]]],[[[-58.13583,-32.33491],[-58.13602,-32.33509],[-58.13583,-32.33556],[-58.13611,-32.33556],[-58.1362,-32.33509],[-58.13583,-32.33491]]],[[[-58.13333,-32.335],[-58.13269,-32.33481],[-58.13231,-32.33491],[-58.13231,-32.335],[-58.13333,-32.335]]],[[[-58.1337,-32.32963],[-58.13361,-32.32981],[-58.13426,-32.33019],[-58.13426,-32.33009],[-58.1337,-32.32963]]],[[[-58.12935,-32.32843],[-58.13139,-32.32833],[-58.12935,-32.32833],[-58.12935,-32.32843]]],[[[-58.12435,-32.34639],[-58.12333,-32.34648],[-58.12333,-32.34657],[-58.12407,-32.34657],[-58.12407,-32.34648],[-58.12435,-32.34648],[-58.12435,-32.34639]]],[[[-58.12269,-32.34648],[-58.12324,-32.34667],[-58.12259,-32.34639],[-58.12241,-32.34593],[-58.12204,-32.34602],[-58.12269,-32.34648]]],[[[-58.115,-32.34241],[-58.11509,-32.34213],[-58.11481,-32.34185],[-58.11435,-32.34204],[-58.115,-32.34241]]],[[[-58.10944,-32.335],[-58.10861,-32.33528],[-58.1088,-32.33528],[-58.1088,-32.33537],[-58.10889,-32.33537],[-58.10889,-32.33546],[-58.10898,-32.33546],[-58.10944,-32.33528],[-58.10944,-32.335]]],[[[-58.10963,-32.33583],[-58.10898,-32.33556],[-58.10944,-32.33583],[-58.10917,-32.33657],[-58.10972,-32.33667],[-58.10963,-32.33583]]],[[[-58.11083,-32.33731],[-58.11065,-32.33769],[-58.11111,-32.33806],[-58.11139,-32.33806],[-58.11083,-32.33731]]],[[[-58.11389,-32.31241],[-58.11361,-32.31185],[-58.11333,-32.31278],[-58.11389,-32.31241]]],[[[-58.10583,-32.33056],[-58.10537,-32.3312],[-58.10583,-32.33102],[-58.10583,-32.33056]]],[[[-58.10694,-32.32907],[-58.10722,-32.32843],[-58.10657,-32.3288],[-58.10657,-32.32935],[-58.10667,-32.32889],[-58.10694,-32.32907]]],[[[-58.10694,-32.32509],[-58.10685,-32.32648],[-58.10704,-32.32657],[-58.10694,-32.32509]]],[[[-58.10694,-32.32472],[-58.10722,-32.32315],[-58.10694,-32.32222],[-58.10694,-32.32472]]],[[[-58.10648,-32.31907],[-58.1062,-32.31889],[-58.10593,-32.31889],[-58.10611,-32.31935],[-58.10648,-32.31907]]],[[[-58.10537,-32.10907],[-58.105,-32.10917],[-58.10583,-32.10963],[-58.10648,-32.10944],[-58.10519,-32.10833],[-58.10463,-32.10861],[-58.10537,-32.10907]]],[[[-58.10241,-32.33759],[-58.10296,-32.33769],[-58.10324,-32.33722],[-58.10259,-32.33731],[-58.10241,-32.33759]]],[[[-58.10407,-32.31796],[-58.10426,-32.31759],[-58.10398,-32.31778],[-58.10398,-32.31815],[-58.105,-32.31833],[-58.10463,-32.31796],[-58.10407,-32.31796]]],[[[-58.09824,-32.30907],[-58.09759,-32.30861],[-58.09778,-32.30907],[-58.09824,-32.30907]]],[[[-58.09657,-32.26926],[-58.09593,-32.27019],[-58.09639,-32.27065],[-58.0962,-32.27],[-58.09657,-32.26926]]],[[[-58.09667,-32.26463],[-58.09648,-32.26481],[-58.09657,-32.26556],[-58.09667,-32.26556],[-58.09667,-32.26463]]],[[[-58.09593,-32.26361],[-58.09676,-32.26454],[-58.09667,-32.26389],[-58.09593,-32.26361]]],[[[-58.10046,-32.22796],[-58.10083,-32.22843],[-58.10074,-32.22889],[-58.10102,-32.22898],[-58.10074,-32.22778],[-58.10111,-32.22769],[-58.10056,-32.2275],[-58.10046,-32.22796]]],[[[-58.10065,-32.23],[-58.10102,-32.22907],[-58.10065,-32.22917],[-58.10065,-32.23]]],[[[-58.10241,-32.22602],[-58.10213,-32.22509],[-58.10269,-32.22472],[-58.1025,-32.22454],[-58.10185,-32.22509],[-58.10222,-32.22583],[-58.10204,-32.22639],[-58.10241,-32.22602]]],[[[-58.1013,-32.22713],[-58.10204,-32.22713],[-58.10176,-32.22667],[-58.1013,-32.22713]]],[[[-58.10231,-32.10787],[-58.10204,-32.10722],[-58.10176,-32.10759],[-58.10204,-32.10787],[-58.10306,-32.10824],[-58.10324,-32.10796],[-58.10296,-32.10769],[-58.10231,-32.10787]]],[[[-58.10028,-32.10667],[-58.10019,-32.10722],[-58.09926,-32.10676],[-58.0987,-32.10685],[-58.10074,-32.10778],[-58.1013,-32.10778],[-58.10148,-32.10759],[-58.10148,-32.10731],[-58.10111,-32.10722],[-58.1013,-32.10667],[-58.10028,-32.10667]]],[[[-58.09472,-32.30454],[-58.09472,-32.30519],[-58.09546,-32.305],[-58.09472,-32.30454]]],[[[-58.09102,-32.28537],[-58.09093,-32.28574],[-58.09139,-32.28602],[-58.0913,-32.28565],[-58.09157,-32.28546],[-58.09102,-32.28537]]],[[[-58.0912,-32.28611],[-58.09037,-32.28713],[-58.09111,-32.28657],[-58.0912,-32.28611]]],[[[-58.09333,-32.28306],[-58.09324,-32.28222],[-58.09324,-32.28352],[-58.09259,-32.2837],[-58.09324,-32.2837],[-58.09333,-32.28306]]],[[[-58.09407,-32.27935],[-58.09352,-32.27954],[-58.09361,-32.27991],[-58.09407,-32.27935]]],[[[-58.09398,-32.27759],[-58.09444,-32.27861],[-58.09435,-32.27759],[-58.09398,-32.27759]]],[[[-58.09343,-32.25574],[-58.0937,-32.25676],[-58.09361,-32.25556],[-58.09343,-32.25574]]],[[[-58.09352,-32.25528],[-58.09361,-32.25509],[-58.09343,-32.25454],[-58.09324,-32.25491],[-58.09352,-32.25528]]],[[[-58.09481,-32.25028],[-58.09528,-32.25046],[-58.09528,-32.25009],[-58.09454,-32.25009],[-58.09463,-32.25102],[-58.09481,-32.25028]]],[[[-58.09296,-32.23287],[-58.09343,-32.23241],[-58.09204,-32.23278],[-58.09296,-32.23287]]],[[[-58.09093,-32.23204],[-58.09139,-32.23222],[-58.09148,-32.23176],[-58.09093,-32.23204]]],[[[-58.09,-32.24074],[-58.09074,-32.24056],[-58.09074,-32.24046],[-58.09019,-32.24046],[-58.09,-32.24074]]],[[[-58.07907,-32.23954],[-58.07972,-32.23963],[-58.08065,-32.23935],[-58.07954,-32.23944],[-58.07944,-32.23917],[-58.07889,-32.23907],[-58.0788,-32.23935],[-58.07926,-32.23926],[-58.07907,-32.23954]]],[[[-58.08981,-32.23778],[-58.08954,-32.23787],[-58.08981,-32.23852],[-58.08981,-32.23778]]],[[[-58.09019,-32.23676],[-58.09046,-32.23546],[-58.09019,-32.23556],[-58.09019,-32.23676]]],[[[-58.0862,-32.23407],[-58.08694,-32.23426],[-58.08741,-32.23407],[-58.0862,-32.23407]]],[[[-58.08833,-32.23231],[-58.08833,-32.23296],[-58.08759,-32.23343],[-58.08806,-32.23333],[-58.08861,-32.23278],[-58.08861,-32.23231],[-58.08833,-32.23231]]],[[[-58.08657,-32.2337],[-58.08556,-32.23259],[-58.08546,-32.23222],[-58.08546,-32.23269],[-58.08657,-32.2337]]],[[[-58.085,-32.23009],[-58.08398,-32.22981],[-58.08407,-32.23019],[-58.0837,-32.23019],[-58.08417,-32.23028],[-58.08417,-32.23056],[-58.0837,-32.23065],[-58.08472,-32.23102],[-58.085,-32.23009]]],[[[-58.08769,-32.1288],[-58.09,-32.12889],[-58.09,-32.1288],[-58.08769,-32.1288]]],[[[-58.08954,-32.11352],[-58.08954,-32.11259],[-58.08944,-32.11259],[-58.08926,-32.11352],[-58.08954,-32.11352]]],[[[-58.08926,-32.10769],[-58.08898,-32.10815],[-58.08898,-32.10889],[-58.08907,-32.10889],[-58.08907,-32.10861],[-58.08944,-32.10824],[-58.08926,-32.10769]]],[[[-58.09,-32.1062],[-58.08935,-32.10731],[-58.08954,-32.10731],[-58.09,-32.10667],[-58.09,-32.1062]]],[[[-58.07176,-32.23954],[-58.06981,-32.24148],[-58.06954,-32.24231],[-58.06898,-32.24259],[-58.06898,-32.24306],[-58.06815,-32.24343],[-58.06648,-32.24509],[-58.06648,-32.24537],[-58.06593,-32.24537],[-58.06398,-32.24731],[-58.06398,-32.24769],[-58.06407,-32.24741],[-58.06463,-32.24741],[-58.06657,-32.24546],[-58.06657,-32.24519],[-58.06769,-32.24463],[-58.06769,-32.24435],[-58.06935,-32.24315],[-58.07111,-32.24046],[-58.07296,-32.23963],[-58.07176,-32.23954]]],[[[-58.07815,-32.12648],[-58.07713,-32.12593],[-58.07704,-32.12657],[-58.07815,-32.12648]]],[[[-58.06648,-32.11269],[-58.06685,-32.11306],[-58.06713,-32.11306],[-58.06694,-32.11278],[-58.06648,-32.11269]]]]}},{"type":"Feature","properties":{"clase":2,"profundidad":"0,5 a 1,5 m"},"geometry":{"type":"MultiPolygon","coordinates":[[[[-58.19185,-32.16898],[-58.19241,-32.16889],[-58.19241,-32.16843],[-58.19213,-32.16833],[-58.19185,-32.16648],[-58.19204,-32.16852],[-58.19167,-32.16889],[-58.19176,-32.16981],[-58.19185,-32.16981],[-58.19185,-32.16898]]],[[[-58.19722,-32.16759],[-58.19602,-32.16778],[-58.19583,-32.16796],[-58.19639,-32.16806],[-58.19722,-32.16759]]],[[[-58.18944,-32.16639],[-58.18972,-32.16657],[-58.19046,-32.16657],[-58.19,-32.16611],[-58.18944,-32.16639]]],[[[-58.18602,-32.16194],[-58.1862,-32.1587],[-58.18602,-32.15889],[-58.18602,-32.16194]]],[[[-58.18435,-32.13769],[-58.18435,-32.13509],[-58.18407,-32.13509],[-58.18407,-32.13435],[-58.18435,-32.13426],[-58.18407,-32.13426],[-58.18407,-32.13315],[-58.18352,-32.13269],[-58.18352,-32.13148],[-58.18324,-32.13148],[-58.18324,-32.13093],[-58.18269,-32.13019],[-58.18269,-32.12926],[-58.18241,-32.12926],[-58.18241,-32.1287],[-58.18213,-32.12861],[-58.18213,-32.12787],[-58.18185,-32.12778],[-58.18185,-32.12731],[-58.18157,-32.12731],[-58.18157,-32.12676],[-58.1813,-32.12667],[-58.1813,-32.12593],[-58.18102,-32.12583],[-58.18102,-32.12537],[-58.18074,-32.12537],[-58.18074,-32.12481],[-58.18046,-32.12481],[-58.18046,-32.12398],[-58.18019,-32.1237],[-58.17991,-32.1237],[-58.17963,-32.12231],[-58.17935,-32.12222],[-58.17935,-32.12148],[-58.17907,-32.12139],[-58.17907,-32.12065],[-58.1788,-32.12065],[-58.1788,-32.12009],[-58.17852,-32.11991],[-58.17852,-32.11843],[-58.17824,-32.11843],[-58.17824,-32.11676],[-58.17796,-32.11667],[-58.17796,-32.11537],[-58.17769,-32.11537],[-58.17769,-32.11426],[-58.17741,-32.11417],[-58.17741,-32.11231],[-58.17713,-32.11222],[-58.17713,-32.11148],[-58.17685,-32.11139],[-58.17685,-32.11009],[-58.17657,-32.11009],[-58.17657,-32.1087],[-58.1763,-32.1087],[-58.1763,-32.10704],[-58.17602,-32.10694],[-58.17602,-32.10593],[-58.17574,-32.10583],[-58.17574,-32.10454],[-58.17519,-32.1038],[-58.17509,-32.1],[-58.17509,-32.10407],[-58.17565,-32.10463],[-58.17565,-32.10602],[-58.17593,-32.10602],[-58.17593,-32.10713],[-58.1762,-32.10713],[-58.1762,-32.1088],[-58.17648,-32.1088],[-58.17648,-32.11019],[-58.17676,-32.11019],[-58.17676,-32.11157],[-58.17704,-32.11157],[-58.17704,-32.11241],[-58.17731,-32.11241],[-58.17731,-32.11435],[-58.17759,-32.11435],[-58.17759,-32.11546],[-58.17787,-32.11546],[-58.17787,-32.11685],[-58.17815,-32.11685],[-58.17815,-32.11852],[-58.17843,-32.11852],[-58.17843,-32.12019],[-58.1787,-32.12019],[-58.1787,-32.12074],[-58.17898,-32.12074],[-58.17898,-32.12157],[-58.17926,-32.12157],[-58.17926,-32.12241],[-58.17954,-32.12241],[-58.17954,-32.12324],[-58.17981,-32.12324],[-58.17981,-32.1238],[-58.18037,-32.12407],[-58.18037,-32.12491],[-58.18065,-32.12491],[-58.18065,-32.12546],[-58.1812,-32.12602],[-58.1812,-32.12685],[-58.18148,-32.12685],[-58.18148,-32.12741],[-58.18176,-32.12741],[-58.18176,-32.12796],[-58.18204,-32.12796],[-58.18204,-32.1288],[-58.18231,-32.1288],[-58.18231,-32.12935],[-58.18259,-32.12935],[-58.18259,-32.13046],[-58.18287,-32.13046],[-58.18287,-32.13102],[-58.18315,-32.13102],[-58.18315,-32.13157],[-58.18343,-32.13157],[-58.18343,-32.13296],[-58.18398,-32.13324],[-58.18398,-32.13519],[-58.18426,-32.13519],[-58.18426,-32.13796],[-58.18454,-32.13796],[-58.18454,-32.13944],[-58.18491,-32.13944],[-58.18463,-32.13917],[-58.18463,-32.13787],[-58.18435,-32.13769]]],[[[-58.15574,-32.34667],[-58.155,-32.34657],[-58.1563,-32.34713],[-58.15574,-32.34667]]],[[[-58.1587,-32.34806],[-58.15796,-32.34769],[-58.15722,-32.34769],[-58.15806,-32.34787],[-58.15815,-32.34824],[-58.15852,-32.34815],[-58.15889,-32.34852],[-58.1587,-32.34806]]],[[[-58.15398,-32.3463],[-58.15287,-32.3463],[-58.15287,-32.34639],[-58.15407,-32.34657],[-58.15398,-32.3463]]],[[[-58.16593,-32.11093],[-58.16546,-32.11009],[-58.16454,-32.11009],[-58.16454,-32.11037],[-58.16398,-32.11037],[-58.1637,-32.11065],[-58.1637,-32.1112],[-58.16343,-32.1112],[-58.16343,-32.11176],[-58.16315,-32.11176],[-58.16287,-32.11204],[-58.16287,-32.11259],[-58.16259,-32.11259],[-58.16259,-32.11315],[-58.16231,-32.11315],[-58.16231,-32.1137],[-58.16204,-32.1137],[-58.16204,-32.11454],[-58.16176,-32.11454],[-58.16176,-32.11509],[-58.16148,-32.11509],[-58.16148,-32.11565],[-58.1612,-32.11565],[-58.1612,-32.1162],[-58.16093,-32.1162],[-58.16093,-32.11704],[-58.16065,-32.11704],[-58.16065,-32.11759],[-58.16037,-32.11759],[-58.16037,-32.11815],[-58.15981,-32.11843],[-58.15981,-32.11926],[-58.15954,-32.11926],[-58.15954,-32.11954],[-58.15926,-32.11954],[-58.15926,-32.12009],[-58.15898,-32.12009],[-58.15898,-32.12065],[-58.1587,-32.12065],[-58.1587,-32.1212],[-58.15843,-32.1212],[-58.15843,-32.12176],[-58.15815,-32.12176],[-58.15815,-32.12287],[-58.15787,-32.12287],[-58.15787,-32.12343],[-58.15759,-32.12343],[-58.15759,-32.12398],[-58.15731,-32.12398],[-58.15731,-32.12454],[-58.15704,-32.12454],[-58.15676,-32.12509],[-58.15648,-32.12509],[-58.15648,-32.12565],[-58.1562,-32.12565],[-58.1562,-32.1262],[-58.15593,-32.1262],[-58.15593,-32.12704],[-58.15565,-32.12704],[-58.15565,-32.12787],[-58.15537,-32.12787],[-58.15537,-32.12954],[-58.15509,-32.12954],[-58.15509,-32.13009],[-58.15481,-32.13009],[-58.15481,-32.13065],[-58.15454,-32.13065],[-58.15454,-32.1312],[-58.15426,-32.1312],[-58.15426,-32.1325],[-58.15435,-32.1313],[-58.15463,-32.1313],[-58.15463,-32.13074],[-58.15491,-32.13074],[-58.15491,-32.13019],[-58.15519,-32.13019],[-58.15519,-32.12963],[-58.15546,-32.12963],[-58.15546,-32.12806],[-58.15574,-32.12796],[-58.15574,-32.12722],[-58.15602,-32.12713],[-58.15602,-32.1263],[-58.1563,-32.1263],[-58.1563,-32.12574],[-58.15657,-32.12574],[-58.15657,-32.12519],[-58.15685,-32.12519],[-58.15741,-32.12463],[-58.15741,-32.12407],[-58.15769,-32.12407],[-58.15769,-32.12352],[-58.15796,-32.12352],[-58.15796,-32.12296],[-58.15824,-32.12296],[-58.15824,-32.12194],[-58.15852,-32.12185],[-58.15852,-32.1213],[-58.1588,-32.1213],[-58.1588,-32.12074],[-58.15907,-32.12074],[-58.15907,-32.12019],[-58.15935,-32.12019],[-58.15935,-32.11963],[-58.15963,-32.11963],[-58.15963,-32.11935],[-58.15991,-32.11935],[-58.15991,-32.11852],[-58.16046,-32.11824],[-58.16046,-32.11769],[-58.16074,-32.11769],[-58.16074,-32.11713],[-58.16102,-32.11713],[-58.16102,-32.1163],[-58.1613,-32.1163],[-58.1613,-32.11574],[-58.16157,-32.11574],[-58.16157,-32.11519],[-58.16185,-32.11519],[-58.16185,-32.11463],[-58.16213,-32.11463],[-58.16213,-32.1138],[-58.16241,-32.1138],[-58.16241,-32.11324],[-58.16269,-32.11324],[-58.16269,-32.11269],[-58.16296,-32.11269],[-58.16296,-32.11213],[-58.16352,-32.11185],[-58.16352,-32.1113],[-58.1638,-32.1113],[-58.1638,-32.11074],[-58.16463,-32.11046],[-58.16463,-32.11019],[-58.16537,-32.11019],[-58.16565,-32.11102],[-58.16593,-32.11102],[-58.16593,-32.11213],[-58.1662,-32.11241],[-58.16648,-32.11241],[-58.16648,-32.11296],[-58.16676,-32.11296],[-58.16676,-32.11352],[-58.16704,-32.11352],[-58.16704,-32.11407],[-58.16731,-32.11407],[-58.16731,-32.11519],[-58.16759,-32.11519],[-58.16759,-32.11602],[-58.16815,-32.1163],[-58.16815,-32.11741],[-58.16843,-32.11741],[-58.16843,-32.11824],[-58.1687,-32.11824],[-58.1687,-32.1187],[-58.16843,-32.1187],[-58.16843,-32.11907],[-58.1687,-32.11907],[-58.1687,-32.12019],[-58.16898,-32.12019],[-58.16926,-32.12546],[-58.16954,-32.12546],[-58.16954,-32.1262],[-58.16926,-32.1262],[-58.16926,-32.12704],[-58.16898,-32.12704],[-58.16926,-32.12713],[-58.16926,-32.13009],[-58.16898,-32.13009],[-58.16898,-32.13046],[-58.16926,-32.13046],[-58.16926,-32.13093],[-58.16898,-32.13093],[-58.16898,-32.13157],[-58.16926,-32.13157],[-58.16926,-32.13259],[-58.16898,-32.13259],[-58.16926,-32.13269],[-58.16926,-32.13509],[-58.16898,-32.13519],[-58.16926,-32.13519],[-58.16935,-32.13593],[-58.16935,-32.13148],[-58.16907,-32.13148],[-58.16907,-32.13102],[-58.16935,-32.13102],[-58.16935,-32.13037],[-58.16907,-32.13019],[-58.16935,-32.13019],[-58.16935,-32.1263],[-58.16963,-32.1263],[-58.16963,-32.12537],[-58.16935,-32.12537],[-58.16935,-32.12176],[-58.16907,-32.12176],[-58.16907,-32.12009],[-58.1688,-32.12009],[-58.1688,-32.11898],[-58.16852,-32.11898],[-58.1688,-32.1188],[-58.1688,-32.11815],[-58.16852,-32.11815],[-58.16852,-32.11731],[-58.16824,-32.11731],[-58.16824,-32.1162],[-58.16769,-32.11593],[-58.16769,-32.11509],[-58.16741,-32.11509],[-58.16741,-32.11398],[-58.16713,-32.11398],[-58.16713,-32.11343],[-58.16685,-32.11343],[-58.16685,-32.11287],[-58.16657,-32.11287],[-58.16657,-32.11231],[-58.16602,-32.11204],[-58.16602,-32.11102],[-58.1662,-32.11185],[-58.16741,-32.11185],[-58.16769,-32.11157],[-58.16769,-32.11065],[-58.16741,-32.11065],[-58.16769,-32.11046],[-58.16769,-32.10815],[-58.16741,-32.10815],[-58.16741,-32.10769],[-58.16769,-32.10769],[-58.16769,-32.10704],[-58.16676,-32.10704],[-58.16648,-32.10731],[-58.16648,-32.10787],[-58.1662,-32.10787],[-58.1662,-32.10898],[-58.16593,-32.10898],[-58.16593,-32.11093]],[[-58.16759,-32.10833],[-58.16759,-32.11009],[-58.16731,-32.11028],[-58.16731,-32.11074],[-58.16759,-32.1113],[-58.16704,-32.11176],[-58.1663,-32.11176],[-58.16602,-32.10917],[-58.1663,-32.10907],[-58.16657,-32.10741],[-58.1675,-32.10713],[-58.16731,-32.10824],[-58.16759,-32.10833]]],[[[-58.15991,-32.1],[-58.15926,-32.10213],[-58.15954,-32.10222],[-58.15954,-32.10278],[-58.15926,-32.10287],[-58.15926,-32.1037],[-58.15898,-32.1037],[-58.1587,-32.10398],[-58.1587,-32.105],[-58.15843,-32.10509],[-58.15815,-32.11148],[-58.15787,-32.11148],[-58.15787,-32.11259],[-58.15759,-32.11259],[-58.15759,-32.11352],[-58.15731,-32.1137],[-58.15731,-32.11454],[-58.15704,-32.11454],[-58.15704,-32.11537],[-58.15676,-32.11537],[-58.15676,-32.1162],[-58.15648,-32.1162],[-58.15648,-32.11704],[-58.15593,-32.11731],[-58.15593,-32.11815],[-58.15565,-32.11815],[-58.15481,-32.11898],[-58.15481,-32.11972],[-58.15454,-32.11981],[-58.15454,-32.12037],[-58.15426,-32.12037],[-58.15426,-32.1212],[-58.15398,-32.1212],[-58.15398,-32.12204],[-58.1537,-32.12204],[-58.1537,-32.12259],[-58.15343,-32.12259],[-58.15343,-32.12306],[-58.15315,-32.12315],[-58.15315,-32.1237],[-58.15287,-32.1237],[-58.15287,-32.12426],[-58.15231,-32.12454],[-58.15231,-32.12509],[-58.15204,-32.12509],[-58.15204,-32.12593],[-58.15176,-32.12593],[-58.15176,-32.12648],[-58.15148,-32.12648],[-58.15148,-32.12704],[-58.1512,-32.12704],[-58.1512,-32.12759],[-58.15065,-32.12787],[-58.15065,-32.12843],[-58.15037,-32.12843],[-58.15037,-32.12898],[-58.14981,-32.12926],[-58.14981,-32.12981],[-58.14954,-32.12981],[-58.14926,-32.13009],[-58.14926,-32.13065],[-58.14898,-32.13065],[-58.1487,-32.13111],[-58.14907,-32.13111],[-58.14907,-32.13074],[-58.14935,-32.13074],[-58.14935,-32.13019],[-58.14991,-32.12991],[-58.14991,-32.12935],[-58.15046,-32.12907],[-58.15046,-32.12852],[-58.15074,-32.12852],[-58.15074,-32.12796],[-58.1513,-32.12769],[-58.1513,-32.12713],[-58.15157,-32.12713],[-58.15157,-32.12657],[-58.15185,-32.12657],[-58.15185,-32.12602],[-58.15213,-32.12602],[-58.15213,-32.12519],[-58.15241,-32.12519],[-58.15241,-32.12463],[-58.15296,-32.12435],[-58.15296,-32.1238],[-58.15324,-32.1238],[-58.15324,-32.12324],[-58.15352,-32.12324],[-58.15352,-32.12269],[-58.1538,-32.12269],[-58.1538,-32.12213],[-58.15407,-32.12213],[-58.15407,-32.1213],[-58.15435,-32.1213],[-58.15435,-32.12046],[-58.15463,-32.12046],[-58.15463,-32.11991],[-58.15491,-32.11991],[-58.15491,-32.11907],[-58.15602,-32.11824],[-58.15602,-32.11741],[-58.15657,-32.11713],[-58.15657,-32.1163],[-58.15685,-32.1163],[-58.15685,-32.11546],[-58.15713,-32.11546],[-58.15713,-32.11463],[-58.15741,-32.11463],[-58.15741,-32.1138],[-58.15769,-32.1138],[-58.15769,-32.11269],[-58.15796,-32.11269],[-58.15796,-32.11157],[-58.15824,-32.11157],[-58.15852,-32.10519],[-58.1588,-32.10519],[-58.1588,-32.10407],[-58.15935,-32.1038],[-58.15935,-32.10296],[-58.15963,-32.10296],[-58.15963,-32.10204],[-58.15935,-32.10185],[-58.15963,-32.10185],[-58.15963,-32.10102],[-58.15991,-32.10102],[-58.15991,-32.1]]],[[[-58.13639,-32.33472],[-58.13556,-32.33454],[-58.1363,-32.33546],[-58.13611,-32.33481],[-58.13639,-32.33472]]],[[[-58.1375,-32.21444],[-58.13694,-32.21444],[-58.13685,-32.21463],[-58.13769,-32.21481],[-58.1375,-32.21444]]],[[[-58.1337,-32.33509],[-58.13213,-32.33481],[-58.13222,-32.33509],[-58.1337,-32.33509]]],[[[-58.13546,-32.33435],[-58.13491,-32.33398],[-58.13417,-32.33398],[-58.13472,-32.33435],[-58.13546,-32.33435]]],[[[-58.13148,-32.32907],[-58.1313,-32.3288],[-58.13037,-32.32889],[-58.13037,-32.32907],[-58.13148,-32.32907]]],[[[-58.12306,-32.34639],[-58.12231,-32.34556],[-58.12204,-32.34546],[-58.12259,-32.34639],[-58.12306,-32.34639]]],[[[-58.12315,-32.34657],[-58.12444,-32.3463],[-58.12306,-32.34639],[-58.12315,-32.34657]]],[[[-58.12204,-32.20926],[-58.12037,-32.20954],[-58.12194,-32.20954],[-58.12204,-32.20926]]],[[[-58.12537,-32.11815],[-58.12611,-32.11796],[-58.12509,-32.11787],[-58.12537,-32.11815]]],[[[-58.12546,-32.11343],[-58.12528,-32.11324],[-58.12463,-32.11315],[-58.12463,-32.11333],[-58.12546,-32.11343]]],[[[-58.11556,-32.34222],[-58.11519,-32.34194],[-58.11481,-32.34185],[-58.11509,-32.34241],[-58.11556,-32.34222]]],[[[-58.1137,-32.34009],[-58.11389,-32.34],[-58.11389,-32.33944],[-58.1137,-32.33944],[-58.1137,-32.34009]]],[[[-58.11083,-32.33704],[-58.10972,-32.33648],[-58.10972,-32.33565],[-58.10898,-32.33537],[-58.10963,-32.33583],[-58.10963,-32.33657],[-58.11093,-32.3375],[-58.11083,-32.33704]]],[[[-58.11509,-32.31907],[-58.11528,-32.31972],[-58.11537,-32.31972],[-58.11537,-32.31917],[-58.11509,-32.31907]]],[[[-58.10194,-32.33796],[-58.10231,-32.33759],[-58.10167,-32.33759],[-58.10194,-32.33796]]],[[[-58.10343,-32.33648],[-58.10269,-32.33778],[-58.10343,-32.33731],[-58.10343,-32.33648]]],[[[-58.10676,-32.32889],[-58.10639,-32.32954],[-58.10676,-32.32944],[-58.10676,-32.32889]]],[[[-58.1062,-32.32954],[-58.10593,-32.32981],[-58.10593,-32.33056],[-58.10639,-32.33],[-58.1062,-32.32954]]],[[[-58.10769,-32.32954],[-58.10722,-32.32981],[-58.10787,-32.32963],[-58.10787,-32.32889],[-58.10769,-32.32954]]],[[[-58.10731,-32.32685],[-58.10759,-32.32796],[-58.10759,-32.32704],[-58.10731,-32.32685]]],[[[-58.10704,-32.32509],[-58.10685,-32.32565],[-58.10694,-32.32639],[-58.10704,-32.32639],[-58.10704,-32.32509]]],[[[-58.10731,-32.32315],[-58.10704,-32.325],[-58.10722,-32.32491],[-58.10731,-32.32315]]],[[[-58.10648,-32.32028],[-58.10676,-32.32185],[-58.10667,-32.32037],[-58.10648,-32.32028]]],[[[-58.10444,-32.31769],[-58.10407,-32.31796],[-58.105,-32.31824],[-58.105,-32.31806],[-58.10444,-32.31769]]],[[[-58.10741,-32.29204],[-58.10741,-32.29148],[-58.10713,-32.29111],[-58.10722,-32.29194],[-58.10741,-32.29204]]],[[[-58.10657,-32.2687],[-58.10648,-32.26815],[-58.1063,-32.26796],[-58.1063,-32.26852],[-58.10657,-32.2687]]],[[[-58.10111,-32.22907],[-58.10074,-32.22926],[-58.10083,-32.23],[-58.10111,-32.22907]]],[[[-58.10194,-32.22722],[-58.1012,-32.22722],[-58.1012,-32.22731],[-58.10185,-32.2275],[-58.10194,-32.22722]]],[[[-58.1025,-32.22611],[-58.10287,-32.22444],[-58.10343,-32.22444],[-58.10343,-32.22426],[-58.10287,-32.22426],[-58.10241,-32.22509],[-58.10213,-32.22509],[-58.10241,-32.22602],[-58.10204,-32.22648],[-58.1025,-32.22611]]],[[[-58.10537,-32.10907],[-58.10491,-32.10861],[-58.10463,-32.1087],[-58.10481,-32.10907],[-58.10537,-32.10907]]],[[[-58.10056,-32.10676],[-58.10148,-32.10685],[-58.10139,-32.10657],[-58.10037,-32.10639],[-58.10056,-32.10676]]],[[[-58.09657,-32.26907],[-58.09639,-32.26907],[-58.09657,-32.26944],[-58.0962,-32.27],[-58.0963,-32.27046],[-58.09667,-32.26991],[-58.09657,-32.26907]]],[[[-58.09648,-32.26593],[-58.09676,-32.26574],[-58.09676,-32.26454],[-58.09648,-32.26593]]],[[[-58.09565,-32.25972],[-58.09537,-32.26093],[-58.09556,-32.26083],[-58.09565,-32.25972]]],[[[-58.09481,-32.25056],[-58.09472,-32.25111],[-58.09481,-32.25065],[-58.09537,-32.25056],[-58.09537,-32.25009],[-58.09519,-32.25056],[-58.09491,-32.25028],[-58.09481,-32.25056]]],[[[-58.09787,-32.24148],[-58.09815,-32.24102],[-58.09815,-32.24065],[-58.09787,-32.24111],[-58.09787,-32.24148]]],[[[-58.09991,-32.23417],[-58.10065,-32.23444],[-58.10046,-32.23407],[-58.09991,-32.23417]]],[[[-58.10037,-32.10741],[-58.10074,-32.1075],[-58.10102,-32.10685],[-58.10065,-32.10694],[-58.10037,-32.10741]]],[[[-58.09176,-32.295],[-58.09148,-32.29481],[-58.09167,-32.29565],[-58.09176,-32.29565],[-58.09176,-32.295]]],[[[-58.09231,-32.28417],[-58.09324,-32.28389],[-58.09333,-32.28361],[-58.09259,-32.2837],[-58.09231,-32.28417]]],[[[-58.09454,-32.27861],[-58.09454,-32.27731],[-58.09444,-32.27731],[-58.09435,-32.27796],[-58.09454,-32.27861]]],[[[-58.09407,-32.2788],[-58.09407,-32.27935],[-58.09398,-32.27944],[-58.09417,-32.27944],[-58.09435,-32.2787],[-58.09407,-32.2788]]],[[[-58.0937,-32.25546],[-58.09352,-32.2563],[-58.0937,-32.25657],[-58.0937,-32.25546]]],[[[-58.0937,-32.25537],[-58.0937,-32.25481],[-58.0937,-32.2538],[-58.09352,-32.25454],[-58.0937,-32.25537]]],[[[-58.08509,-32.23241],[-58.0862,-32.23407],[-58.08741,-32.23407],[-58.08824,-32.23324],[-58.08926,-32.23333],[-58.08926,-32.23713],[-58.08981,-32.23778],[-58.08981,-32.23944],[-58.08954,-32.23954],[-58.08954,-32.24009],[-58.08926,-32.24009],[-58.08926,-32.24065],[-58.08787,-32.24204],[-58.08759,-32.24287],[-58.08657,-32.2437],[-58.08519,-32.2437],[-58.08435,-32.24287],[-58.08407,-32.24176],[-58.08296,-32.24065],[-58.08296,-32.23981],[-58.08157,-32.23898],[-58.08046,-32.23898],[-58.08046,-32.2387],[-58.07926,-32.2387],[-58.07889,-32.23898],[-58.07843,-32.2387],[-58.07833,-32.23898],[-58.07676,-32.23898],[-58.07676,-32.23926],[-58.07509,-32.23926],[-58.07509,-32.23954],[-58.07435,-32.23954],[-58.07426,-32.23926],[-58.07417,-32.23954],[-58.07278,-32.23963],[-58.07685,-32.23963],[-58.07694,-32.23935],[-58.0788,-32.23935],[-58.07889,-32.23907],[-58.07954,-32.23944],[-58.08139,-32.23935],[-58.08148,-32.23963],[-58.08213,-32.23963],[-58.08231,-32.24019],[-58.08287,-32.24056],[-58.08315,-32.24213],[-58.0837,-32.24222],[-58.0837,-32.24324],[-58.08426,-32.2438],[-58.08481,-32.24407],[-58.08685,-32.24407],[-58.08741,-32.2438],[-58.08769,-32.24296],[-58.08852,-32.24241],[-58.08852,-32.24185],[-58.08963,-32.24074],[-58.09074,-32.24046],[-58.09046,-32.23991],[-58.09046,-32.23815],[-58.09019,-32.23815],[-58.09019,-32.23556],[-58.09046,-32.23546],[-58.09046,-32.23435],[-58.09074,-32.23435],[-58.09046,-32.23407],[-58.09074,-32.23306],[-58.09176,-32.23241],[-58.09204,-32.23269],[-58.09361,-32.23241],[-58.09333,-32.23222],[-58.09343,-32.2312],[-58.0925,-32.23176],[-58.09148,-32.23176],[-58.09139,-32.23222],[-58.08861,-32.23231],[-58.08833,-32.23315],[-58.08667,-32.23398],[-58.08546,-32.23269],[-58.08546,-32.23204],[-58.08519,-32.23194],[-58.08519,-32.23037],[-58.08546,-32.23009],[-58.085,-32.23009],[-58.08472,-32.23102],[-58.08509,-32.23241]]],[[[-58.0863,-32.12648],[-58.0863,-32.12676],[-58.08843,-32.12676],[-58.0863,-32.12648]]],[[[-58.07833,-32.12639],[-58.07778,-32.12611],[-58.07731,-32.12611],[-58.07731,-32.12639],[-58.07833,-32.12639]]],[[[-58.08917,-32.10917],[-58.08917,-32.1087],[-58.08944,-32.10861],[-58.08944,-32.10824],[-58.08907,-32.10861],[-58.08917,-32.10917]]],[[[-58.09009,-32.1062],[-58.08926,-32.10731],[-58.08935,-32.10815],[-58.08972,-32.10778],[-58.08972,-32.10713],[-58.09009,-32.10676],[-58.09009,-32.1062]]],[[[-58.07509,-32.12417],[-58.07528,-32.12454],[-58.07546,-32.12454],[-58.07537,-32.12491],[-58.0762,-32.12491],[-58.07509,-32.12417]]]]}}]}