{"type":"FeatureCollection","features":[{"type":"Feature","properties":{"clase":1,"profundidad":"hasta 0,5 m"},"geometry":{"type":"MultiPolygon","coordinates":[[[[-58.15657,-32.34722],[-58.15556,-32.34667],[-58.15519,-32.34667],[-58.15593,-32.34731],[-58.15657,-32.34722]]],[[[-58.15731,-32.34778],[-58.1587,-32.34843],[-58.15889,-32.3488],[-58.15907,-32.3488],[-58.1587,-32.34815],[-58.15806,-32.34778],[-58.15731,-32.34778]]],[[[-58.1925,-32.16889],[-58.19204,-32.16796],[-58.19222,-32.16852],[-58.19176,-32.16898],[-58.19176,-32.16972],[-58.19194,-32.16907],[-58.1925,-32.16889]]],[[[-58.1962,-32.16787],[-58.19565,-32.16759],[-58.19565,-32.16796],[-58.1962,-32.16787]]],[[[-58.19713,-32.16769],[-58.19694,-32.16759],[-58.1963,-32.16769],[-58.1963,-32.16787],[-58.19713,-32.16769]]],[[[-58.18944,-32.16657],[-58.19056,-32.16657],[-58.19056,-32.16648],[-58.18991,-32.16583],[-58.19,-32.16639],[-58.18944,-32.16657]]],[[[-58.1863,-32.1588],[-58.18602,-32.15917],[-58.18602,-32.16065],[-58.1863,-32.1588]]],[[[-58.16593,-32.11093],[-58.16546,-32.11009],[-58.16454,-32.11009],[-58.16454,-32.11037],[-58.16398,-32.11037],[-58.1637,-32.11065],[-58.16343,-32.11176],[-58.16315,-32.11176],[-58.16315,-32.11204],[-58.16287,-32.11204],[-58.16287,-32.11259],[-58.16259,-32.11259],[-58.16259,-32.11315],[-58.16231,-32.11315],[-58.16231,-32.1137],[-58.16204,-32.1137],[-58.16204,-32.11454],[-58.16176,-32.11454],[-58.16176,-32.11509],[-58.16148,-32.11509],[-58.1612,-32.1162],[-58.16093,-32.1162],[-58.16093,-32.11704],[-58.16065,-32.11704],[-58.16037,-32.11815],[-58.15981,-32.11843],[-58.15981,-32.11926],[-58.15926,-32.11954],[-58.15926,-32.12009],[-58.15898,-32.12009],[-58.15898,-32.12065],[-58.1587,-32.12065],[-58.1587,-32.1212],[-58.15843,-32.1212],[-58.15843,-32.12176],[-58.15815,-32.12176],[-58.15815,-32.12287],[-58.15787,-32.12287],[-58.15787,-32.12343],[-58.15759,-32.12343],[-58.15731,-32.12454],[-58.15648,-32.12509],[-58.15648,-32.12565],[-58.1562,-32.12565],[-58.1562,-32.1262],[-58.15593,-32.1262],[-58.15593,-32.12704],[-58.15565,-32.12704],[-58.15565,-32.12787],[-58.15537,-32.12787],[-58.15537,-32.12954],[-58.15509,-32.12954],[-58.15509,-32.13009],[-58.15481,-32.13009],[-58.15454,-32.1312],[-58.15426,-32.1312],[-58.15426,-32.13241],[-58.15435,-32.13139],[-58.15463,-32.1313],[-58.15491,-32.13028],[-58.15519,-32.13019],[-58.15519,-32.12972],[-58.15546,-32.12963],[-58.15546,-32.12815],[-58.15574,-32.12796],[-58.15574,-32.12731],[-58.15602,-32.12713],[-58.15602,-32.12639],[-58.1563,-32.1263],[-58.15685,-32.12491],[-58.15741,-32.12463],[-58.15769,-32.12361],[-58.15796,-32.12352],[-58.15796,-32.12296],[-58.15824,-32.12296],[-58.15852,-32.1213],[-58.1588,-32.1213],[-58.1588,-32.12074],[-58.15907,-32.12074],[-58.15907,-32.12019],[-58.15935,-32.12019],[-58.15935,-32.11972],[-58.15991,-32.11935],[-58.15991,-32.11861],[-58.16046,-32.11824],[-58.16074,-32.11713],[-58.16102,-32.11713],[-58.16102,-32.11639],[-58.1613,-32.1163],[-58.16157,-32.11528],[-58.16185,-32.11519],[-58.16185,-32.11472],[-58.16213,-32.11463],[-58.16213,-32.11389],[-58.16241,-32.1138],[-58.16241,-32.11333],[-58.16269,-32.11324],[-58.16269,-32.11269],[-58.16296,-32.11269],[-58.16324,-32.11185],[-58.16352,-32.11185],[-58.16417,-32.11046],[-58.16528,-32.11019],[-58.16565,-32.11046],[-58.16565,-32.11102],[-58.16593,-32.11102],[-58.16593,-32.11213],[-58.1662,-32.11213],[-58.1662,-32.11241],[-58.16648,-32.11241],[-58.16648,-32.11296],[-58.16676,-32.11296],[-58.16676,-32.11352],[-58.16704,-32.11352],[-58.16704,-32.11407],[-58.16731,-32.11407],[-58.16731,-32.11519],[-58.16759,-32.11528],[-58.16759,-32.11602],[-58.16815,-32.11639],[-58.16815,-32.11741],[-58.16843,-32.11741],[-58.16843,-32.11824],[-58.1687,-32.11833],[-58.16843,-32.1187],[-58.16843,-32.11907],[-58.1687,-32.11907],[-58.1687,-32.12019],[-58.16898,-32.12019],[-58.16926,-32.12546],[-58.16954,-32.12546],[-58.16954,-32.1262],[-58.16926,-32.1262],[-58.16926,-32.12704],[-58.16898,-32.12704],[-58.16926,-32.12713],[-58.16926,-32.13009],[-58.16898,-32.13009],[-58.16898,-32.13046],[-58.16926,-32.13056],[-58.16898,-32.13093],[-58.16898,-32.13157],[-58.16926,-32.13167],[-58.16926,-32.1325],[-58.16898,-32.13259],[-58.16926,-32.13269],[-58.16926,-32.13509],[-58.16898,-32.13519],[-58.16926,-32.13519],[-58.16935,-32.13593],[-58.16935,-32.13148],[-58.16907,-32.13148],[-58.16935,-32.13037],[-58.16907,-32.13019],[-58.16935,-32.13019],[-58.16935,-32.1263],[-58.16963,-32.1263],[-58.16963,-32.12537],[-58.16935,-32.12537],[-58.16935,-32.12176],[-58.16907,-32.12176],[-58.16907,-32.12009],[-58.1688,-32.12009],[-58.1688,-32.11898],[-58.16852,-32.11898],[-58.1688,-32.1188],[-58.1688,-32.11815],[-58.16852,-32.11815],[-58.16852,-32.11731],[-58.16824,-32.11731],[-58.16824,-32.1162],[-58.16769,-32.11593],[-58.16741,-32.11398],[-58.16713,-32.11398],[-58.16713,-32.11343],[-58.16685,-32.11343],[-58.16685,-32.11287],[-58.16657,-32.11287],[-58.16657,-32.11231],[-58.1663,-32.11231],[-58.1663,-32.11204],[-58.16602,-32.11204],[-58.16602,-32.11102],[-58.1662,-32.11185],[-58.16741,-32.11185],[-58.16769,-32.11157],[-58.16769,-32.11065],[-58.16741,-32.11065],[-58.16769,-32.11046],[-58.16769,-32.10815],[-58.16741,-32.10815],[-58.16769,-32.10704],[-58.16676,-32.10704],[-58.16648,-32.10731],[-58.16648,-32.10787],[-58.1662,-32.10787],[-58.1662,-32.10898],[-58.16593,-32.10898],[-58.16593,-32.11093]],[[-58.16731,-32.10824],[-58.16759,-32.10972],[-58.16731,-32.11019],[-58.1675,-32.1113],[-58.16694,-32.11176],[-58.16639,-32.11176],[-58.1663,-32.11093],[-58.16602,-32.11083],[-58.16602,-32.10926],[-58.1663,-32.10907],[-58.16657,-32.1075],[-58.16704,-32.10713],[-58.1675,-32.10722],[-58.16731,-32.1075],[-58.16731,-32.10824]]],[[[-58.18444,-32.1375],[-58.18435,-32.13509],[-58.18407,-32.135],[-58.18435,-32.13426],[-58.18407,-32.13426],[-58.18407,-32.13315],[-58.18361,-32.13269],[-58.18352,-32.13148],[-58.18296,-32.13074],[-58.18269,-32.12926],[-58.18241,-32.12917],[-58.18213,-32.12787],[-58.18185,-32.12731],[-58.18157,-32.12722],[-58.18157,-32.12676],[-58.1813,-32.12657],[-58.1813,-32.12593],[-58.18102,-32.12537],[-58.18074,-32.12528],[-58.18074,-32.12481],[-58.18046,-32.12472],[-58.18046,-32.12398],[-58.17991,-32.12361],[-58.17963,-32.12231],[-58.17935,-32.12213],[-58.17935,-32.12148],[-58.17907,-32.1213],[-58.17907,-32.12065],[-58.17852,-32.11963],[-58.17852,-32.11843],[-58.17824,-32.11833],[-58.17824,-32.11676],[-58.17796,-32.11657],[-58.17796,-32.11537],[-58.17769,-32.11528],[-58.17769,-32.11426],[-58.17741,-32.11407],[-58.17741,-32.11231],[-58.17713,-32.11213],[-58.17713,-32.11148],[-58.17685,-32.1113],[-58.17685,-32.11009],[-58.17657,-32.11],[-58.17657,-32.1087],[-58.1763,-32.10861],[-58.1763,-32.10694],[-58.17602,-32.10676],[-58.17602,-32.10583],[-58.17574,-32.10565],[-58.17574,-32.10454],[-58.17519,-32.10361],[-58.17509,-32.1],[-58.17509,-32.10407],[-58.17565,-32.10463],[-58.17565,-32.10602],[-58.17593,-32.10602],[-58.17593,-32.10713],[-58.1762,-32.10713],[-58.1762,-32.1088],[-58.17648,-32.1088],[-58.17648,-32.11019],[-58.17676,-32.11019],[-58.17676,-32.11157],[-58.17704,-32.11157],[-58.17704,-32.11241],[-58.17731,-32.11241],[-58.17731,-32.11435],[-58.17759,-32.11435],[-58.17759,-32.11546],[-58.17787,-32.11546],[-58.17787,-32.11685],[-58.17815,-32.11685],[-58.17815,-32.11852],[-58.17843,-32.11852],[-58.17843,-32.12019],[-58.17898,-32.12074],[-58.17898,-32.12157],[-58.17926,-32.12157],[-58.17954,-32.12324],[-58.17981,-32.12324],[-58.17981,-32.1238],[-58.18037,-32.12407],[-58.18037,-32.12491],[-58.18065,-32.12491],[-58.18093,-32.12602],[-58.1812,-32.12602],[-58.1812,-32.12685],[-58.18148,-32.12685],[-58.18176,-32.12796],[-58.18204,-32.12796],[-58.18204,-32.1288],[-58.18231,-32.1288],[-58.18231,-32.12935],[-58.18259,-32.12935],[-58.18259,-32.13046],[-58.18287,-32.13046],[-58.18287,-32.13102],[-58.18343,-32.13157],[-58.18343,-32.13296],[-58.18398,-32.13324],[-58.18398,-32.13519],[-58.18426,-32.13519],[-58.18426,-32.13796],[-58.18454,-32.13796],[-58.18454,-32.13935],[-58.18491,-32.13935],[-58.18444,-32.1375]]],[[[-58.15231,-32.3425],[-58.15287,-32.34259],[-58.15306,-32.34241],[-58.15287,-32.34231],[-58.15231,-32.3425]]],[[[-58.14074,-32.33389],[-58.14065,-32.33333],[-58.14056,-32.33389],[-58.1412,-32.33398],[-58.14111,-32.33417],[-58.1412,-32.33444],[-58.14139,-32.33398],[-58.14074,-32.33389]]],[[[-58.13769,-32.21472],[-58.13731,-32.21444],[-58.13704,-32.21444],[-58.13731,-32.21491],[-58.13769,-32.21472]]],[[[-58.14185,-32.16037],[-58.14194,-32.15815],[-58.14185,-32.15815],[-58.14185,-32.16037]]],[[[-58.15954,-32.10111],[-58.15926,-32.1012],[-58.15926,-32.10213],[-58.15954,-32.10269],[-58.15926,-32.10287],[-58.15926,-32.10361],[-58.1587,-32.10398],[-58.1587,-32.10491],[-58.15843,-32.10509],[-58.15815,-32.11139],[-58.15787,-32.11148],[-58.15787,-32.1125],[-58.15759,-32.11259],[-58.15759,-32.11343],[-58.15731,-32.11361],[-58.15731,-32.11444],[-58.15704,-32.11454],[-58.15704,-32.11537],[-58.15676,-32.11537],[-58.15676,-32.1162],[-58.15648,-32.1162],[-58.15648,-32.11694],[-58.15593,-32.11731],[-58.15593,-32.11806],[-58.15481,-32.11898],[-58.15454,-32.12037],[-58.15426,-32.12037],[-58.15426,-32.1212],[-58.15398,-32.1212],[-58.15398,-32.12204],[-58.1537,-32.12204],[-58.1537,-32.12259],[-58.15343,-32.12259],[-58.15315,-32.12315],[-58.15315,-32.12361],[-58.15287,-32.1237],[-58.15287,-32.12417],[-58.15231,-32.12454],[-58.15231,-32.12509],[-58.15204,-32.12509],[-58.15204,-32.12583],[-58.15176,-32.12593],[-58.15176,-32.12648],[-58.15148,-32.12648],[-58.15148,-32.12704],[-58.1512,-32.12704],[-58.1512,-32.12759],[-58.15093,-32.12759],[-58.15065,-32.12787],[-58.15065,-32.12843],[-58.15037,-32.12843],[-58.15037,-32.12889],[-58.14981,-32.12926],[-58.14981,-32.12981],[-58.14954,-32.12981],[-58.14926,-32.13009],[-58.14926,-32.13065],[-58.14898,-32.13065],[-58.1487,-32.13102],[-58.14907,-32.13111],[-58.14907,-32.13074],[-58.14935,-32.13074],[-58.14935,-32.13019],[-58.14991,-32.12991],[-58.14991,-32.12935],[-58.15046,-32.12907],[-58.15046,-32.12852],[-58.15074,-32.12852],[-58.15074,-32.12796],[-58.1513,-32.12769],[-58.1513,-32.12713],[-58.15157,-32.12713],[-58.15157,-32.12657],[-58.15185,-32.12657],[-58.15185,-32.12602],[-58.15213,-32.12602],[-58.15241,-32.12463],[-58.15296,-32.12435],[-58.15352,-32.12269],[-58.1538,-32.12269],[-58.1538,-32.12213],[-58.15407,-32.12213],[-58.15407,-32.1213],[-58.15435,-32.1213],[-58.15435,-32.12046],[-58.15463,-32.12046],[-58.15463,-32.11991],[-58.15491,-32.11991],[-58.15491,-32.11907],[-58.15602,-32.11824],[-58.15602,-32.11741],[-58.15657,-32.11713],[-58.15657,-32.1163],[-58.15685,-32.1163],[-58.15685,-32.11546],[-58.15713,-32.11546],[-58.15713,-32.11463],[-58.15741,-32.11463],[-58.15741,-32.1138],[-58.15769,-32.1138],[-58.15769,-32.11269],[-58.15796,-32.11269],[-58.15796,-32.11157],[-58.15824,-32.11157],[-58.15852,-32.10519],[-58.1588,-32.10519],[-58.1588,-32.10407],[-58.15935,-32.1038],[-58.15935,-32.10296],[-58.15963,-32.10296],[-58.15963,-32.10204],[-58.15935,-32.10185],[-58.15963,-32.10185],[-58.15963,-32.10102],[-58.15991,-32.10102],[-58.15991,-32.1],[-58.15954,-32.10111]]],[[[-58.13593,-32.33491],[-58.1362,-32.33556],[-58.1362,-32.335],[-58.13546,-32.33426],[-58.13546,-32.33472],[-58.13593,-32.33491]]],[[[-58.13222,-32.32833],[-58.12981,-32.32843],[-58.13222,-32.32843],[-58.13222,-32.32833]]],[[[-58.12185,-32.34602],[-58.12241,-32.34602],[-58.12259,-32.34648],[-58.12444,-32.34657],[-58.12259,-32.3463],[-58.12204,-32.34519],[-58.12213,-32.34583],[-58.12185,-32.34602]]],[[[-58.11472,-32.34167],[-58.11472,-32.34204],[-58.11509,-32.34241],[-58.11583,-32.34222],[-58.11481,-32.34194],[-58.11472,-32.34167]]],[[[-58.11417,-32.3412],[-58.1137,-32.34],[-58.11361,-32.34],[-58.11361,-32.34065],[-58.11417,-32.3412]]],[[[-58.10944,-32.33556],[-58.10898,-32.33528],[-58.10954,-32.33583],[-58.10944,-32.33657],[-58.10981,-32.33667],[-58.10944,-32.33556]]],[[[-58.11083,-32.33713],[-58.11028,-32.33685],[-58.11074,-32.33722],[-58.11074,-32.33759],[-58.11102,-32.33769],[-58.11102,-32.33787],[-58.11111,-32.33787],[-58.11111,-32.33796],[-58.1112,-32.33796],[-58.11083,-32.33713]]],[[[-58.1138,-32.31241],[-58.1137,-32.31176],[-58.11333,-32.31222],[-58.11333,-32.31269],[-58.1138,-32.31241]]],[[[-58.1213,-32.20926],[-58.12056,-32.20944],[-58.12167,-32.20944],[-58.1213,-32.20926]]],[[[-58.10333,-32.33713],[-58.10278,-32.33769],[-58.1025,-32.3375],[-58.10176,-32.33759],[-58.10296,-32.33778],[-58.10333,-32.33713]]],[[[-58.10685,-32.3263],[-58.10704,-32.32593],[-58.10685,-32.32528],[-58.10685,-32.3263]]],[[[-58.10704,-32.32306],[-58.10713,-32.32481],[-58.10722,-32.32306],[-58.10704,-32.32306]]],[[[-58.10593,-32.31889],[-58.1062,-32.31917],[-58.10657,-32.31917],[-58.10611,-32.3188],[-58.10593,-32.31889]]],[[[-58.10463,-32.31787],[-58.10426,-32.31796],[-58.10417,-32.31759],[-58.10398,-32.31806],[-58.10454,-32.31806],[-58.10491,-32.31833],[-58.10509,-32.31833],[-58.10463,-32.31787]]],[[[-58.10074,-32.22935],[-58.10083,-32.22991],[-58.10093,-32.22991],[-58.10102,-32.22917],[-58.10074,-32.22935]]],[[[-58.10269,-32.22454],[-58.1038,-32.22417],[-58.10269,-32.22426],[-58.10269,-32.22454]]],[[[-58.10241,-32.22509],[-58.10269,-32.22472],[-58.10194,-32.22519],[-58.1025,-32.22602],[-58.10241,-32.22509]]],[[[-58.10204,-32.22694],[-58.10167,-32.22676],[-58.1012,-32.22731],[-58.10185,-32.22741],[-58.10204,-32.22694]]],[[[-58.10065,-32.22759],[-58.10046,-32.22796],[-58.10102,-32.22843],[-58.10102,-32.22778],[-58.10065,-32.22759]]],[[[-58.10769,-32.11],[-58.10731,-32.11019],[-58.10769,-32.11019],[-58.10787,-32.11046],[-58.10806,-32.11046],[-58.10769,-32.11]]],[[[-58.10426,-32.1087],[-58.10472,-32.10907],[-58.1063,-32.10963],[-58.10602,-32.10944],[-58.1063,-32.10907],[-58.105,-32.1087],[-58.10528,-32.10833],[-58.10426,-32.1087]]],[[[-58.1013,-32.10676],[-58.10037,-32.10648],[-58.10065,-32.10685],[-58.10019,-32.10741],[-58.1013,-32.10769],[-58.10139,-32.10731],[-58.10093,-32.1075],[-58.10102,-32.10713],[-58.10065,-32.10722],[-58.1013,-32.10676]]],[[[-58.0975,-32.30741],[-58.09676,-32.30676],[-58.0975,-32.30769],[-58.0975,-32.30741]]],[[[-58.09481,-32.30519],[-58.09537,-32.305],[-58.095,-32.30454],[-58.09481,-32.30454],[-58.09481,-32.30519]]],[[[-58.09333,-32.2837],[-58.09333,-32.28343],[-58.09296,-32.2838],[-58.09259,-32.28361],[-58.09231,-32.28407],[-58.09333,-32.2837]]],[[[-58.09167,-32.28537],[-58.09111,-32.28565],[-58.0912,-32.28611],[-58.09167,-32.28537]]],[[[-58.09111,-32.2862],[-58.09065,-32.28694],[-58.09111,-32.28667],[-58.09111,-32.2862]]],[[[-58.09463,-32.27722],[-58.09426,-32.27796],[-58.09444,-32.27815],[-58.09463,-32.27722]]],[[[-58.09343,-32.28009],[-58.09417,-32.27935],[-58.09407,-32.27898],[-58.09444,-32.27852],[-58.09398,-32.2787],[-58.09398,-32.27935],[-58.09343,-32.28009]]],[[[-58.09667,-32.26926],[-58.09602,-32.27009],[-58.0963,-32.27056],[-58.0963,-32.27009],[-58.09667,-32.26926]]],[[[-58.09676,-32.2675],[-58.09648,-32.26704],[-58.09648,-32.26778],[-58.09676,-32.2675]]],[[[-58.09361,-32.25565],[-58.09343,-32.25593],[-58.09352,-32.25648],[-58.09361,-32.25648],[-58.09361,-32.25565]]],[[[-58.09481,-32.2512],[-58.09481,-32.25046],[-58.09528,-32.25056],[-58.09537,-32.25009],[-58.09519,-32.25046],[-58.09481,-32.25009],[-58.09472,-32.25028],[-58.09481,-32.2512]]],[[[-58.08472,-32.23028],[-58.08481,-32.23213],[-58.08509,-32.23213],[-58.08565,-32.23352],[-58.0862,-32.23407],[-58.0875,-32.23407],[-58.08833,-32.23324],[-58.08926,-32.23343],[-58.08926,-32.23713],[-58.08981,-32.23824],[-58.08981,-32.23935],[-58.08926,-32.24056],[-58.08843,-32.2412],[-58.08787,-32.24241],[-58.08694,-32.24343],[-58.08528,-32.2437],[-58.08435,-32.24287],[-58.08407,-32.24176],[-58.08296,-32.24056],[-58.08296,-32.23981],[-58.08167,-32.23898],[-58.08056,-32.23898],[-58.08046,-32.2387],[-58.07926,-32.2387],[-58.07898,-32.23898],[-58.07843,-32.2387],[-58.07824,-32.23898],[-58.07676,-32.23898],[-58.07667,-32.23926],[-58.07509,-32.23926],[-58.075,-32.23954],[-58.07417,-32.23926],[-58.07389,-32.23954],[-58.07269,-32.23963],[-58.07685,-32.23963],[-58.07704,-32.23935],[-58.07889,-32.23917],[-58.07935,-32.23926],[-58.07926,-32.23963],[-58.0812,-32.23935],[-58.08213,-32.23972],[-58.08259,-32.24028],[-58.08315,-32.24111],[-58.08315,-32.24213],[-58.08361,-32.24222],[-58.0837,-32.24324],[-58.08398,-32.24324],[-58.08417,-32.2438],[-58.08472,-32.24407],[-58.08694,-32.24407],[-58.08741,-32.2438],[-58.08769,-32.24306],[-58.08972,-32.24074],[-58.09074,-32.24046],[-58.09046,-32.23815],[-58.09019,-32.23815],[-58.09019,-32.23565],[-58.09056,-32.23528],[-58.09074,-32.23315],[-58.09176,-32.2325],[-58.09296,-32.23278],[-58.09352,-32.23241],[-58.09324,-32.23231],[-58.09333,-32.2312],[-58.09231,-32.23176],[-58.09148,-32.23176],[-58.09093,-32.23231],[-58.08843,-32.23231],[-58.08833,-32.23306],[-58.08667,-32.23389],[-58.08556,-32.23269],[-58.08528,-32.23194],[-58.08519,-32.23074],[-58.08546,-32.23009],[-58.08472,-32.23028]]],[[[-58.08944,-32.12648],[-58.08824,-32.12667],[-58.08824,-32.12676],[-58.08907,-32.12676],[-58.08944,-32.12667],[-58.08944,-32.12648]]],[[[-58.07602,-32.12463],[-58.07528,-32.12444],[-58.07509,-32.12417],[-58.07537,-32.12491],[-58.07602,-32.12481],[-58.07611,-32.125],[-58.0762,-32.125],[-58.07602,-32.12463]]],[[[-58.07667,-32.12537],[-58.07657,-32.12556],[-58.07685,-32.12583],[-58.07713,-32.12583],[-58.07667,-32.12537]]],[[[-58.07731,-32.12648],[-58.07769,-32.12657],[-58.07787,-32.12639],[-58.07824,-32.12639],[-58.07824,-32.1263],[-58.07731,-32.1262],[-58.07722,-32.12593],[-58.07731,-32.12648]]],[[[-58.06093,-32.10926],[-58.06009,-32.10907],[-58.06111,-32.10972],[-58.06093,-32.10926]]],[[[-58.08963,-32.10769],[-58.09009,-32.10657],[-58.09,-32.1062],[-58.08926,-32.10778],[-58.08963,-32.10769]]],[[[-58.08944,-32.10852],[-58.08917,-32.10778],[-58.08935,-32.10833],[-58.08898,-32.10852],[-58.08907,-32.10898],[-58.08944,-32.10852]]],[[[-58.05102,-32.10046],[-58.0512,-32.1013],[-58.0512,-32.10139],[-58.0513,-32.10139],[-58.0513,-32.10093],[-58.05102,-32.10046]]]]}},{"type":"Feature","properties":{"clase":2,"profundidad":"0,5 a 1,5 m"},"geometry":{"type":"MultiPolygon","coordinates":[[[[-58.19222,-32.16852],[-58.19194,-32.16796],[-58.19194,-32.1688],[-58.19222,-32.16852]]],[[[-58.13556,-32.33454],[-58.13602,-32.33491],[-58.13611,-32.33491],[-58.13611,-32.33481],[-58.1363,-32.33481],[-58.13611,-32.33454],[-58.13556,-32.33454]]],[[[-58.13537,-32.33435],[-58.13491,-32.33398],[-58.13426,-32.33398],[-58.13481,-32.33435],[-58.13537,-32.33435]]]]}}]}