{"type":"FeatureCollection","features":[{"type":"Feature","properties":{"clase":1,"profundidad":"hasta 0,5 m"},"geometry":{"type":"MultiPolygon","coordinates":[[[[-58.19269,-32.16935],[-58.1925,-32.16861],[-58.19241,-32.16898],[-58.19194,-32.16907],[-58.19194,-32.16991],[-58.19204,-32.16991],[-58.19204,-32.16917],[-58.19269,-32.16935]]],[[[-58.19213,-32.16815],[-58.19241,-32.16833],[-58.19222,-32.16676],[-58.19213,-32.16676],[-58.19213,-32.16815]]],[[[-58.19,-32.16611],[-58.19074,-32.16583],[-58.19074,-32.16574],[-58.19009,-32.16574],[-58.19,-32.16611]]],[[[-58.15787,-32.34787],[-58.15731,-32.34787],[-58.15731,-32.34796],[-58.15806,-32.34824],[-58.15787,-32.34787]]],[[[-58.15481,-32.34713],[-58.15519,-32.34667],[-58.15407,-32.34667],[-58.15481,-32.34676],[-58.15481,-32.34713]]],[[[-58.15593,-32.34731],[-58.15519,-32.34676],[-58.15556,-32.34741],[-58.15657,-32.34731],[-58.15593,-32.34731]]],[[[-58.14194,-32.15815],[-58.14204,-32.16037],[-58.14204,-32.15815],[-58.14194,-32.15815]]],[[[-58.14037,-32.33269],[-58.13963,-32.33148],[-58.13917,-32.33157],[-58.14037,-32.33269]]],[[[-58.13407,-32.33481],[-58.13278,-32.33491],[-58.13278,-32.335],[-58.13398,-32.335],[-58.13407,-32.33481]]],[[[-58.12787,-32.12009],[-58.12815,-32.12028],[-58.12824,-32.12074],[-58.12852,-32.12028],[-58.12815,-32.11991],[-58.12787,-32.12009]]],[[[-58.12269,-32.34685],[-58.12333,-32.34657],[-58.12259,-32.34648],[-58.12241,-32.34602],[-58.12194,-32.34602],[-58.12269,-32.34685]]],[[[-58.115,-32.34231],[-58.11472,-32.34167],[-58.11426,-32.34204],[-58.11435,-32.34222],[-58.115,-32.34231]]],[[[-58.11361,-32.34],[-58.11343,-32.34102],[-58.11407,-32.3412],[-58.11361,-32.34065],[-58.11361,-32.34]]],[[[-58.10954,-32.33583],[-58.10898,-32.33528],[-58.10935,-32.33519],[-58.1087,-32.33491],[-58.10889,-32.33509],[-58.1087,-32.33537],[-58.10944,-32.3362],[-58.10889,-32.33657],[-58.10963,-32.33667],[-58.10954,-32.33583]]],[[[-58.11028,-32.33722],[-58.11065,-32.33741],[-58.11019,-32.33778],[-58.11009,-32.33852],[-58.11065,-32.33824],[-58.11065,-32.33778],[-58.11102,-32.33787],[-58.11074,-32.33722],[-58.11028,-32.33722]]],[[[-58.10889,-32.33648],[-58.10852,-32.33565],[-58.1087,-32.33611],[-58.10843,-32.33676],[-58.10889,-32.33648]]],[[[-58.10815,-32.3363],[-58.10843,-32.33657],[-58.10843,-32.33565],[-58.10787,-32.33611],[-58.10778,-32.33565],[-58.10806,-32.33556],[-58.10787,-32.33509],[-58.10731,-32.33574],[-58.10787,-32.33657],[-58.10815,-32.3363]]],[[[-58.11426,-32.31157],[-58.1137,-32.31176],[-58.11398,-32.31213],[-58.11426,-32.31157]]],[[[-58.10593,-32.32972],[-58.10556,-32.33009],[-58.10574,-32.33083],[-58.10593,-32.32972]]],[[[-58.10694,-32.32898],[-58.10731,-32.32843],[-58.10685,-32.32833],[-58.10657,-32.32861],[-58.10648,-32.32935],[-58.10676,-32.3287],[-58.10694,-32.32898]]],[[[-58.10694,-32.32296],[-58.10685,-32.32463],[-58.10704,-32.325],[-58.10713,-32.32315],[-58.10694,-32.32296]]],[[[-58.10648,-32.32648],[-58.10685,-32.3263],[-58.10685,-32.32528],[-58.10676,-32.32593],[-58.1063,-32.3262],[-58.10648,-32.32648]]],[[[-58.10583,-32.3187],[-58.10602,-32.31935],[-58.10657,-32.31926],[-58.10583,-32.3187]]],[[[-58.105,-32.31852],[-58.10546,-32.31852],[-58.10546,-32.31843],[-58.10472,-32.31824],[-58.105,-32.31852]]],[[[-58.1062,-32.10917],[-58.10639,-32.10963],[-58.10676,-32.10944],[-58.1062,-32.10917]]],[[[-58.10444,-32.10852],[-58.10398,-32.10815],[-58.10333,-32.10833],[-58.10389,-32.10833],[-58.10417,-32.1088],[-58.10426,-32.1088],[-58.10426,-32.1087],[-58.10472,-32.1087],[-58.10481,-32.10833],[-58.10444,-32.10852]]],[[[-58.10269,-32.33685],[-58.10324,-32.33694],[-58.10324,-32.33657],[-58.10296,-32.33648],[-58.10269,-32.33685]]],[[[-58.10278,-32.33769],[-58.10315,-32.33722],[-58.10194,-32.33741],[-58.1025,-32.3375],[-58.10278,-32.33769]]],[[[-58.09611,-32.27046],[-58.09657,-32.26926],[-58.09611,-32.26907],[-58.09602,-32.26861],[-58.09602,-32.26926],[-58.0963,-32.26954],[-58.09602,-32.26991],[-58.09565,-32.26963],[-58.09556,-32.27],[-58.09611,-32.27046]]],[[[-58.09685,-32.26426],[-58.0962,-32.2638],[-58.09667,-32.26472],[-58.09685,-32.26426]]],[[[-58.10269,-32.22417],[-58.10324,-32.22426],[-58.1038,-32.22407],[-58.10315,-32.22398],[-58.10269,-32.22417]]],[[[-58.10241,-32.22602],[-58.10194,-32.22509],[-58.10278,-32.22463],[-58.10269,-32.22426],[-58.10176,-32.225],[-58.10176,-32.22426],[-58.10148,-32.22417],[-58.10139,-32.22472],[-58.10037,-32.225],[-58.10037,-32.22574],[-58.10009,-32.22593],[-58.09981,-32.22685],[-58.09991,-32.22685],[-58.1,-32.22667],[-58.10056,-32.22667],[-58.10028,-32.22593],[-58.10074,-32.22583],[-58.10093,-32.22657],[-58.10009,-32.22694],[-58.10046,-32.22741],[-58.10167,-32.22602],[-58.10148,-32.22537],[-58.10194,-32.22528],[-58.10204,-32.2263],[-58.10241,-32.22602]],[[-58.1013,-32.22481],[-58.10157,-32.22519],[-58.1012,-32.22556],[-58.10102,-32.22509],[-58.1013,-32.22481]]],[[[-58.10194,-32.22639],[-58.10157,-32.22667],[-58.10148,-32.22704],[-58.10167,-32.22704],[-58.10194,-32.22639]]],[[[-58.10046,-32.22787],[-58.10074,-32.22741],[-58.10046,-32.22741],[-58.10019,-32.22806],[-58.10056,-32.22815],[-58.10074,-32.22898],[-58.10093,-32.22898],[-58.10102,-32.22843],[-58.10046,-32.22787]]],[[[-58.10157,-32.10731],[-58.10093,-32.10778],[-58.10019,-32.10741],[-58.10065,-32.10685],[-58.10037,-32.10648],[-58.10009,-32.10704],[-58.09926,-32.10713],[-58.10083,-32.10787],[-58.10185,-32.10769],[-58.10296,-32.10824],[-58.10269,-32.10787],[-58.10324,-32.10787],[-58.10296,-32.10759],[-58.1025,-32.10778],[-58.10222,-32.10741],[-58.10204,-32.10778],[-58.10204,-32.10741],[-58.10167,-32.10759],[-58.10157,-32.10731]]],[[[-58.09963,-32.10685],[-58.09917,-32.10676],[-58.09889,-32.10694],[-58.09926,-32.10713],[-58.09963,-32.10685]]],[[[-58.09843,-32.10685],[-58.09907,-32.10667],[-58.09824,-32.10648],[-58.09843,-32.10685]]],[[[-58.09481,-32.30519],[-58.09481,-32.30491],[-58.09426,-32.30509],[-58.09426,-32.30519],[-58.09481,-32.30519]]],[[[-58.09157,-32.28546],[-58.09093,-32.28537],[-58.09083,-32.28574],[-58.0913,-32.28602],[-58.09111,-32.28565],[-58.09157,-32.28546]]],[[[-58.09046,-32.28704],[-58.09102,-32.28657],[-58.09102,-32.2862],[-58.09037,-32.28685],[-58.09046,-32.28704]]],[[[-58.09324,-32.28361],[-58.09343,-32.28315],[-58.09315,-32.28241],[-58.09315,-32.28352],[-58.09278,-32.28361],[-58.09278,-32.28315],[-58.0925,-32.28315],[-58.0925,-32.2838],[-58.09324,-32.28361]]],[[[-58.0937,-32.27731],[-58.09398,-32.27769],[-58.09435,-32.27815],[-58.09435,-32.27741],[-58.0937,-32.27731]]],[[[-58.09435,-32.27852],[-58.0937,-32.2788],[-58.09398,-32.27935],[-58.09398,-32.2787],[-58.09435,-32.27852]]],[[[-58.09343,-32.27917],[-58.09343,-32.27963],[-58.09361,-32.27991],[-58.0938,-32.27944],[-58.09343,-32.27917]]],[[[-58.09333,-32.28056],[-58.09352,-32.27991],[-58.09315,-32.27972],[-58.09315,-32.28046],[-58.09333,-32.28056]]],[[[-58.09306,-32.25648],[-58.09352,-32.25648],[-58.09352,-32.25602],[-58.09306,-32.25648]]],[[[-58.09315,-32.25491],[-58.09343,-32.255],[-58.09352,-32.25444],[-58.09333,-32.25454],[-58.09315,-32.25491]]],[[[-58.09463,-32.25111],[-58.09472,-32.25028],[-58.09481,-32.25028],[-58.09481,-32.25009],[-58.095,-32.25009],[-58.095,-32.25],[-58.09444,-32.24991],[-58.09454,-32.25065],[-58.09426,-32.25074],[-58.09463,-32.25074],[-58.09463,-32.25111]]],[[[-58.07926,-32.23963],[-58.07926,-32.23917],[-58.07815,-32.23935],[-58.07907,-32.23926],[-58.07898,-32.23963],[-58.07926,-32.23963]]],[[[-58.08796,-32.23398],[-58.08759,-32.23389],[-58.08713,-32.23417],[-58.08759,-32.23417],[-58.08796,-32.23398]]],[[[-58.08787,-32.23287],[-58.08787,-32.23259],[-58.08824,-32.23278],[-58.08769,-32.23333],[-58.08833,-32.23306],[-58.08843,-32.23231],[-58.08731,-32.23231],[-58.08731,-32.23269],[-58.08787,-32.23287]]],[[[-58.08454,-32.22954],[-58.08389,-32.22981],[-58.08361,-32.23019],[-58.08361,-32.23065],[-58.08463,-32.23102],[-58.08472,-32.23028],[-58.08491,-32.23009],[-58.08546,-32.23009],[-58.08546,-32.23],[-58.08481,-32.23],[-58.08454,-32.22954]]],[[[-58.07704,-32.1263],[-58.07722,-32.12667],[-58.07787,-32.12657],[-58.07722,-32.12639],[-58.07722,-32.12593],[-58.07704,-32.1263]]],[[[-58.08935,-32.10833],[-58.08907,-32.10778],[-58.08898,-32.10852],[-58.08935,-32.10833]]],[[[-58.07176,-32.23954],[-58.06981,-32.24148],[-58.06954,-32.24222],[-58.06898,-32.2425],[-58.06861,-32.24333],[-58.06815,-32.24343],[-58.06676,-32.24509],[-58.06593,-32.24537],[-58.06398,-32.24731],[-58.06398,-32.24769],[-58.06463,-32.24741],[-58.06769,-32.24435],[-58.0688,-32.2438],[-58.0713,-32.24046],[-58.07306,-32.23963],[-58.07176,-32.23954]]],[[[-58.07259,-32.12296],[-58.07361,-32.12278],[-58.07306,-32.12204],[-58.07259,-32.12296]]],[[[-58.06648,-32.11269],[-58.06676,-32.11296],[-58.06713,-32.11296],[-58.06713,-32.11259],[-58.06648,-32.11269]]],[[[-58.06231,-32.11046],[-58.0625,-32.11046],[-58.0625,-32.11037],[-58.06231,-32.11009],[-58.06194,-32.11009],[-58.06231,-32.11046]]],[[[-58.05352,-32.10704],[-58.0537,-32.10769],[-58.05407,-32.10759],[-58.05352,-32.10704]]]]}},{"type":"Feature","properties":{"clase":2,"profundidad":"0,5 a 1,5 m"},"geometry":{"type":"MultiPolygon","coordinates":[[[[-58.19565,-32.16935],[-58.19491,-32.16991],[-58.19611,-32.16935],[-58.19565,-32.16935]]],[[[-58.19593,-32.1687],[-58.19509,-32.16889],[-58.19509,-32.16898],[-58.19574,-32.16898],[-58.19593,-32.1687]]],[[[-58.19509,-32.16898],[-58.1938,-32.16954],[-58.195,-32.16926],[-58.19509,-32.16898]]],[[[-58.19204,-32.16852],[-58.19167,-32.16889],[-58.19167,-32.16972],[-58.19194,-32.17009],[-58.19306,-32.17009],[-58.19315,-32.16981],[-58.19204,-32.17],[-58.19185,-32.16972],[-58.19194,-32.16907],[-58.1925,-32.16889],[-58.19185,-32.16639],[-58.19204,-32.16852]]],[[[-58.19694,-32.16769],[-58.19565,-32.16759],[-58.19565,-32.16796],[-58.19667,-32.16815],[-58.19657,-32.16787],[-58.19713,-32.16778],[-58.19731,-32.16731],[-58.19694,-32.16769]]],[[[-58.18944,-32.16639],[-58.19056,-32.16657],[-58.19,-32.16583],[-58.1912,-32.16556],[-58.19009,-32.16556],[-58.18991,-32.16574],[-58.18991,-32.1663],[-58.18944,-32.16639]]],[[[-58.1912,-32.16648],[-58.19102,-32.16741],[-58.1912,-32.16778],[-58.1912,-32.16648]]],[[[-58.18602,-32.15796],[-58.18602,-32.1587],[-58.1862,-32.1587],[-58.1863,-32.15815],[-58.18602,-32.15796]]],[[[-58.1863,-32.16306],[-58.18611,-32.15926],[-58.18639,-32.1587],[-58.18602,-32.15889],[-58.18602,-32.16324],[-58.1863,-32.16306]]],[[[-58.18602,-32.16324],[-58.18574,-32.16343],[-58.18546,-32.16407],[-58.18574,-32.16398],[-58.18602,-32.16324]]],[[[-58.18852,-32.1488],[-58.18787,-32.14889],[-58.18769,-32.1487],[-58.18778,-32.14898],[-58.18852,-32.14898],[-58.18861,-32.14926],[-58.18852,-32.1488]]],[[[-58.18741,-32.14787],[-58.18731,-32.14704],[-58.18713,-32.14676],[-58.18713,-32.14769],[-58.18741,-32.14787]]],[[[-58.18602,-32.14269],[-58.18639,-32.14287],[-58.18602,-32.14213],[-58.18602,-32.14269]]],[[[-58.1762,-32.1088],[-58.17648,-32.1088],[-58.17648,-32.11019],[-58.17676,-32.11019],[-58.17676,-32.11157],[-58.17704,-32.11157],[-58.17704,-32.11241],[-58.17731,-32.11241],[-58.17731,-32.11435],[-58.17759,-32.11435],[-58.17759,-32.11546],[-58.17787,-32.11546],[-58.17787,-32.11685],[-58.17815,-32.11685],[-58.17815,-32.11852],[-58.17843,-32.11852],[-58.17843,-32.12019],[-58.1787,-32.12019],[-58.1787,-32.12074],[-58.17898,-32.12074],[-58.17898,-32.12157],[-58.17926,-32.12157],[-58.17954,-32.12324],[-58.17981,-32.12324],[-58.17981,-32.1238],[-58.18037,-32.12407],[-58.18037,-32.12491],[-58.18065,-32.12491],[-58.18093,-32.12602],[-58.1812,-32.12602],[-58.1812,-32.12685],[-58.18148,-32.12685],[-58.18176,-32.12796],[-58.18204,-32.12796],[-58.18204,-32.1288],[-58.18231,-32.1288],[-58.18231,-32.12935],[-58.18259,-32.12935],[-58.18259,-32.13046],[-58.18287,-32.13046],[-58.18287,-32.13102],[-58.18315,-32.13102],[-58.18315,-32.13157],[-58.18343,-32.13157],[-58.18343,-32.13296],[-58.18398,-32.13324],[-58.18398,-32.13519],[-58.18426,-32.13519],[-58.18426,-32.13796],[-58.18454,-32.13796],[-58.18454,-32.13944],[-58.18509,-32.13954],[-58.18463,-32.13898],[-58.18463,-32.13778],[-58.18435,-32.1375],[-58.18435,-32.13509],[-58.18407,-32.135],[-58.18435,-32.13426],[-58.18407,-32.13426],[-58.18407,-32.13315],[-58.18361,-32.13269],[-58.18352,-32.13148],[-58.18296,-32.13074],[-58.18269,-32.12926],[-58.18241,-32.12917],[-58.18213,-32.12787],[-58.18157,-32.12722],[-58.18157,-32.12676],[-58.1813,-32.12657],[-58.1813,-32.12593],[-58.18074,-32.12528],[-58.18074,-32.12481],[-58.18046,-32.12472],[-58.18046,-32.12398],[-58.17991,-32.12361],[-58.17963,-32.12231],[-58.17935,-32.12213],[-58.17935,-32.12148],[-58.17907,-32.1213],[-58.17907,-32.12065],[-58.17852,-32.11963],[-58.17852,-32.11843],[-58.17824,-32.11833],[-58.17824,-32.11676],[-58.17796,-32.11657],[-58.17796,-32.11537],[-58.17769,-32.11528],[-58.17769,-32.11426],[-58.17741,-32.11407],[-58.17741,-32.11231],[-58.17713,-32.11213],[-58.17713,-32.11148],[-58.17685,-32.1113],[-58.17685,-32.11009],[-58.17657,-32.11],[-58.17657,-32.1087],[-58.1763,-32.10861],[-58.1763,-32.10694],[-58.17602,-32.10676],[-58.17602,-32.10583],[-58.17574,-32.10565],[-58.17574,-32.10454],[-58.17519,-32.10361],[-58.17509,-32.1],[-58.17509,-32.10407],[-58.17565,-32.10463],[-58.17565,-32.10602],[-58.17593,-32.10602],[-58.17593,-32.10713],[-58.1762,-32.10713],[-58.1762,-32.1088]]],[[[-58.15269,-32.3463],[-58.15407,-32.34657],[-58.15398,-32.3463],[-58.15269,-32.3463]]],[[[-58.15843,-32.34806],[-58.155,-32.34639],[-58.15407,-32.34657],[-58.15546,-32.34676],[-58.15593,-32.34731],[-58.15657,-32.34722],[-58.15676,-32.34759],[-58.15787,-32.34787],[-58.15815,-32.34833],[-58.15917,-32.3488],[-58.15843,-32.34806]]],[[[-58.15296,-32.34231],[-58.15213,-32.34231],[-58.15222,-32.34259],[-58.15324,-32.34259],[-58.15296,-32.34231]]],[[[-58.14509,-32.20667],[-58.14463,-32.20704],[-58.14463,-32.20741],[-58.14472,-32.20741],[-58.14509,-32.20667]]],[[[-58.14926,-32.20019],[-58.14907,-32.20037],[-58.14917,-32.20093],[-58.14935,-32.20093],[-58.14926,-32.20019]]],[[[-58.16593,-32.11093],[-58.16546,-32.11009],[-58.16454,-32.11009],[-58.16454,-32.11037],[-58.16398,-32.11037],[-58.1637,-32.11065],[-58.1637,-32.1112],[-58.16343,-32.1112],[-58.16343,-32.11176],[-58.16315,-32.11176],[-58.16315,-32.11204],[-58.16287,-32.11204],[-58.16287,-32.11259],[-58.16259,-32.11259],[-58.16259,-32.11315],[-58.16231,-32.11315],[-58.16231,-32.1137],[-58.16204,-32.1137],[-58.16204,-32.11454],[-58.16176,-32.11454],[-58.16176,-32.11509],[-58.16148,-32.11509],[-58.1612,-32.1162],[-58.16093,-32.1162],[-58.16093,-32.11704],[-58.16065,-32.11704],[-58.16037,-32.11815],[-58.15981,-32.11843],[-58.15981,-32.11926],[-58.15926,-32.11954],[-58.15926,-32.12009],[-58.15898,-32.12009],[-58.15898,-32.12065],[-58.1587,-32.12065],[-58.1587,-32.1212],[-58.15843,-32.1212],[-58.15843,-32.12176],[-58.15815,-32.12176],[-58.15815,-32.12287],[-58.15787,-32.12287],[-58.15787,-32.12343],[-58.15759,-32.12343],[-58.15731,-32.12454],[-58.15648,-32.12509],[-58.15648,-32.12565],[-58.1562,-32.12565],[-58.1562,-32.1262],[-58.15593,-32.1262],[-58.15593,-32.12704],[-58.15565,-32.12704],[-58.15565,-32.12787],[-58.15537,-32.12787],[-58.15537,-32.12954],[-58.15509,-32.12954],[-58.15509,-32.13009],[-58.15481,-32.13009],[-58.15454,-32.1312],[-58.15426,-32.1312],[-58.15426,-32.1325],[-58.15435,-32.13139],[-58.15463,-32.1313],[-58.15491,-32.13028],[-58.15519,-32.13019],[-58.15519,-32.12972],[-58.15546,-32.12963],[-58.15546,-32.12815],[-58.15574,-32.12796],[-58.15574,-32.12731],[-58.15602,-32.12713],[-58.15602,-32.12639],[-58.1563,-32.1263],[-58.15685,-32.12491],[-58.15741,-32.12463],[-58.15769,-32.12361],[-58.15796,-32.12352],[-58.15796,-32.12296],[-58.15824,-32.12296],[-58.15852,-32.1213],[-58.1588,-32.1213],[-58.1588,-32.12074],[-58.15907,-32.12074],[-58.15907,-32.12019],[-58.15935,-32.12019],[-58.15935,-32.11972],[-58.15991,-32.11935],[-58.15991,-32.11861],[-58.16046,-32.11824],[-58.16074,-32.11713],[-58.16102,-32.11713],[-58.16102,-32.11639],[-58.1613,-32.1163],[-58.16157,-32.11528],[-58.16185,-32.11519],[-58.16185,-32.11472],[-58.16213,-32.11463],[-58.16213,-32.11389],[-58.16241,-32.1138],[-58.16241,-32.11333],[-58.16269,-32.11324],[-58.16269,-32.11269],[-58.16296,-32.11269],[-58.16324,-32.11185],[-58.16352,-32.11185],[-58.16417,-32.11046],[-58.16528,-32.11019],[-58.16565,-32.11046],[-58.16565,-32.11102],[-58.16593,-32.11102],[-58.16593,-32.11213],[-58.1662,-32.11213],[-58.1662,-32.11241],[-58.16648,-32.11241],[-58.16648,-32.11296],[-58.16676,-32.11296],[-58.16676,-32.11352],[-58.16704,-32.11352],[-58.16704,-32.11407],[-58.16731,-32.11407],[-58.16731,-32.11519],[-58.16759,-32.11528],[-58.16759,-32.11602],[-58.16815,-32.11639],[-58.16815,-32.11741],[-58.16843,-32.11741],[-58.16843,-32.11824],[-58.1687,-32.11833],[-58.16843,-32.1187],[-58.16843,-32.11907],[-58.1687,-32.11907],[-58.1687,-32.12019],[-58.16898,-32.12019],[-58.16926,-32.12546],[-58.16954,-32.12546],[-58.16954,-32.1262],[-58.16926,-32.1262],[-58.16926,-32.12704],[-58.16898,-32.12704],[-58.16926,-32.12713],[-58.16926,-32.13009],[-58.16898,-32.13009],[-58.16898,-32.13046],[-58.16926,-32.13056],[-58.16898,-32.13093],[-58.16898,-32.13157],[-58.16926,-32.13167],[-58.16926,-32.1325],[-58.16898,-32.13259],[-58.16926,-32.13269],[-58.16926,-32.13509],[-58.16898,-32.13519],[-58.16926,-32.13519],[-58.16935,-32.13593],[-58.16935,-32.13148],[-58.16907,-32.13148],[-58.16935,-32.13037],[-58.16907,-32.13019],[-58.16935,-32.13019],[-58.16935,-32.1263],[-58.16963,-32.1263],[-58.16963,-32.12537],[-58.16935,-32.12537],[-58.16935,-32.12176],[-58.16907,-32.12176],[-58.16907,-32.12009],[-58.1688,-32.12009],[-58.1688,-32.11898],[-58.16852,-32.11898],[-58.1688,-32.1188],[-58.1688,-32.11815],[-58.16852,-32.11815],[-58.16852,-32.11731],[-58.16824,-32.11731],[-58.16824,-32.1162],[-58.16769,-32.11593],[-58.16741,-32.11398],[-58.16713,-32.11398],[-58.16713,-32.11343],[-58.16685,-32.11343],[-58.16685,-32.11287],[-58.16657,-32.11287],[-58.16657,-32.11231],[-58.1663,-32.11231],[-58.1663,-32.11204],[-58.16602,-32.11204],[-58.16602,-32.11102],[-58.1662,-32.11185],[-58.16741,-32.11185],[-58.16769,-32.11157],[-58.16769,-32.11065],[-58.16741,-32.11065],[-58.16769,-32.11046],[-58.16769,-32.10815],[-58.16741,-32.10815],[-58.16769,-32.10704],[-58.16676,-32.10704],[-58.16648,-32.10731],[-58.16648,-32.10787],[-58.1662,-32.10787],[-58.1662,-32.10898],[-58.16593,-32.10898],[-58.16593,-32.11093]],[[-58.16759,-32.10843],[-58.16759,-32.10972],[-58.16731,-32.11019],[-58.1675,-32.1113],[-58.16694,-32.11176],[-58.16639,-32.11176],[-58.1663,-32.11093],[-58.16602,-32.11083],[-58.16602,-32.10926],[-58.1663,-32.10907],[-58.16657,-32.1075],[-58.16704,-32.10713],[-58.1675,-32.10722],[-58.16731,-32.10824],[-58.16759,-32.10843]]],[[[-58.14991,-32.12935],[-58.15046,-32.12907],[-58.15046,-32.12852],[-58.15074,-32.12852],[-58.15074,-32.12796],[-58.15102,-32.12796],[-58.1513,-32.12769],[-58.1513,-32.12713],[-58.15157,-32.12713],[-58.15157,-32.12657],[-58.15185,-32.12657],[-58.15185,-32.12602],[-58.15213,-32.12602],[-58.15241,-32.12463],[-58.15296,-32.12435],[-58.15296,-32.1238],[-58.15324,-32.1238],[-58.15352,-32.12269],[-58.1538,-32.12269],[-58.1538,-32.12213],[-58.15407,-32.12213],[-58.15407,-32.1213],[-58.15435,-32.1213],[-58.15435,-32.12046],[-58.15463,-32.12046],[-58.15463,-32.11991],[-58.15491,-32.11991],[-58.15491,-32.11907],[-58.15602,-32.11824],[-58.15602,-32.11741],[-58.1563,-32.11741],[-58.15657,-32.11713],[-58.15657,-32.1163],[-58.15685,-32.1163],[-58.15685,-32.11546],[-58.15713,-32.11546],[-58.15713,-32.11463],[-58.15741,-32.11463],[-58.15741,-32.1138],[-58.15769,-32.1138],[-58.15769,-32.11269],[-58.15796,-32.11269],[-58.15796,-32.11157],[-58.15824,-32.11157],[-58.15824,-32.10963],[-58.15852,-32.10963],[-58.15852,-32.10519],[-58.1588,-32.10519],[-58.1588,-32.10407],[-58.15935,-32.1038],[-58.15935,-32.10296],[-58.15963,-32.10296],[-58.15963,-32.10204],[-58.15935,-32.10185],[-58.15963,-32.10185],[-58.15963,-32.10102],[-58.15991,-32.10102],[-58.15991,-32.1],[-58.15981,-32.10065],[-58.15926,-32.1012],[-58.15926,-32.10213],[-58.15954,-32.10269],[-58.15926,-32.10287],[-58.15926,-32.10361],[-58.1587,-32.10398],[-58.1587,-32.10491],[-58.15843,-32.10509],[-58.15815,-32.11139],[-58.15787,-32.11148],[-58.15787,-32.1125],[-58.15759,-32.11259],[-58.15759,-32.11343],[-58.15731,-32.11361],[-58.15731,-32.11444],[-58.15704,-32.11454],[-58.15704,-32.11537],[-58.15676,-32.11537],[-58.15676,-32.1162],[-58.15648,-32.1162],[-58.15648,-32.11694],[-58.15593,-32.11731],[-58.15593,-32.11806],[-58.15481,-32.11898],[-58.15454,-32.12037],[-58.15426,-32.12037],[-58.15426,-32.1212],[-58.15398,-32.1212],[-58.15398,-32.12204],[-58.1537,-32.12204],[-58.1537,-32.12259],[-58.15343,-32.12259],[-58.15315,-32.12361],[-58.15287,-32.1237],[-58.15287,-32.12417],[-58.15231,-32.12454],[-58.15231,-32.12509],[-58.15204,-32.12509],[-58.15204,-32.12583],[-58.15176,-32.12593],[-58.15176,-32.12648],[-58.15148,-32.12648],[-58.15148,-32.12704],[-58.1512,-32.12704],[-58.1512,-32.12759],[-58.15065,-32.12787],[-58.15065,-32.12843],[-58.15037,-32.12843],[-58.15037,-32.12889],[-58.14981,-32.12926],[-58.14981,-32.12981],[-58.14954,-32.12981],[-58.14926,-32.13009],[-58.14926,-32.13065],[-58.14898,-32.13065],[-58.1487,-32.13111],[-58.14907,-32.13111],[-58.14907,-32.13074],[-58.14935,-32.13074],[-58.14935,-32.13019],[-58.14991,-32.12991],[-58.14991,-32.12935]]],[[[-58.13074,-32.33454],[-58.13093,-32.33481],[-58.13213,-32.33481],[-58.13074,-32.33454]]],[[[-58.13222,-32.33509],[-58.13593,-32.33556],[-58.13519,-32.33509],[-58.13472,-32.33528],[-58.13407,-32.33491],[-58.13213,-32.33481],[-58.13222,-32.33509]]],[[[-58.13417,-32.33398],[-58.13611,-32.33509],[-58.1362,-32.33556],[-58.1362,-32.33454],[-58.135,-32.33398],[-58.13417,-32.33398]]],[[[-58.1413,-32.33389],[-58.14074,-32.33389],[-58.14056,-32.33333],[-58.14056,-32.33398],[-58.14111,-32.33398],[-58.14102,-32.33463],[-58.1413,-32.33389]]],[[[-58.13852,-32.3312],[-58.13778,-32.33028],[-58.13685,-32.33009],[-58.13694,-32.33037],[-58.13769,-32.33037],[-58.13815,-32.33111],[-58.13852,-32.3312]]],[[[-58.14046,-32.33287],[-58.13972,-32.33185],[-58.13852,-32.3312],[-58.13861,-32.33148],[-58.13935,-32.33176],[-58.14028,-32.33287],[-58.14046,-32.33287]]],[[[-58.13435,-32.33019],[-58.13324,-32.32907],[-58.13213,-32.32907],[-58.13324,-32.32926],[-58.13435,-32.33019]]],[[[-58.13537,-32.33102],[-58.13463,-32.33019],[-58.13435,-32.33019],[-58.13537,-32.33102]]],[[[-58.1338,-32.21685],[-58.13463,-32.21583],[-58.13491,-32.21574],[-58.13454,-32.21574],[-58.13417,-32.21602],[-58.1338,-32.21648],[-58.1338,-32.21685]]],[[[-58.13769,-32.21463],[-58.13824,-32.2138],[-58.13769,-32.21426],[-58.13769,-32.21463]]],[[[-58.13731,-32.21491],[-58.1375,-32.21463],[-58.1375,-32.21444],[-58.13685,-32.21454],[-58.13731,-32.21463],[-58.13731,-32.21491]]],[[[-58.14185,-32.16074],[-58.14213,-32.15796],[-58.14185,-32.15806],[-58.14185,-32.16074]]],[[[-58.1313,-32.3288],[-58.13019,-32.3288],[-58.13037,-32.32907],[-58.13148,-32.32907],[-58.1313,-32.3288]]],[[[-58.13231,-32.32824],[-58.12981,-32.32843],[-58.13231,-32.32843],[-58.13231,-32.32824]]],[[[-58.13296,-32.21815],[-58.13241,-32.21843],[-58.13241,-32.2188],[-58.13296,-32.21815]]],[[[-58.13204,-32.12574],[-58.13213,-32.1263],[-58.13222,-32.1263],[-58.13222,-32.12685],[-58.13231,-32.12685],[-58.13231,-32.12583],[-58.13204,-32.12574]]],[[[-58.13083,-32.12333],[-58.13148,-32.12426],[-58.13148,-32.12361],[-58.13093,-32.12324],[-58.13093,-32.12278],[-58.13065,-32.12269],[-58.13083,-32.12333]]],[[[-58.12519,-32.11796],[-58.12454,-32.11741],[-58.12519,-32.11815],[-58.1262,-32.11824],[-58.12611,-32.11796],[-58.12519,-32.11796]]],[[[-58.12648,-32.11861],[-58.12648,-32.11907],[-58.1275,-32.11935],[-58.1275,-32.11917],[-58.12648,-32.11861]]],[[[-58.12815,-32.11991],[-58.12815,-32.12019],[-58.1287,-32.12046],[-58.1287,-32.12028],[-58.12815,-32.11991]]],[[[-58.13194,-32.11731],[-58.13231,-32.11722],[-58.13157,-32.11648],[-58.13157,-32.11685],[-58.13194,-32.11731]]],[[[-58.12852,-32.11454],[-58.12898,-32.11509],[-58.12954,-32.11509],[-58.12852,-32.11454]]],[[[-58.12546,-32.11343],[-58.12519,-32.11315],[-58.12463,-32.11315],[-58.12463,-32.11333],[-58.12546,-32.11343]]],[[[-58.12213,-32.34583],[-58.12185,-32.34602],[-58.12241,-32.34602],[-58.12259,-32.34648],[-58.12454,-32.34657],[-58.12444,-32.3463],[-58.12278,-32.3463],[-58.12176,-32.34491],[-58.12213,-32.34583]]],[[[-58.11463,-32.34157],[-58.11509,-32.34241],[-58.11583,-32.34222],[-58.11491,-32.34194],[-58.11463,-32.34157]]],[[[-58.11815,-32.3438],[-58.11926,-32.34407],[-58.11917,-32.3438],[-58.11815,-32.3438]]],[[[-58.11741,-32.3062],[-58.11722,-32.30528],[-58.11713,-32.30528],[-58.11713,-32.30611],[-58.11741,-32.3062]]],[[[-58.11574,-32.30028],[-58.11565,-32.29954],[-58.11546,-32.29926],[-58.11546,-32.3],[-58.11574,-32.30028]]],[[[-58.11463,-32.2963],[-58.11472,-32.29722],[-58.11491,-32.29731],[-58.11491,-32.29667],[-58.11463,-32.2963]]],[[[-58.12204,-32.20926],[-58.12065,-32.20926],[-58.12037,-32.20954],[-58.12194,-32.20954],[-58.12204,-32.20926]]],[[[-58.1137,-32.34056],[-58.1137,-32.33944],[-58.11361,-32.34065],[-58.11426,-32.34157],[-58.11417,-32.34083],[-58.1137,-32.34056]]],[[[-58.11176,-32.33824],[-58.11074,-32.33694],[-58.10972,-32.33648],[-58.10972,-32.33565],[-58.10926,-32.33546],[-58.10954,-32.33528],[-58.10944,-32.33491],[-58.10935,-32.33528],[-58.10898,-32.33528],[-58.10954,-32.33583],[-58.10944,-32.33657],[-58.11028,-32.33685],[-58.1112,-32.33806],[-58.11176,-32.33824]]],[[[-58.1125,-32.33852],[-58.11231,-32.33824],[-58.11176,-32.33824],[-58.11176,-32.33833],[-58.1125,-32.33852]]],[[[-58.10843,-32.33657],[-58.1087,-32.33593],[-58.10843,-32.33565],[-58.10843,-32.33657]]],[[[-58.11352,-32.31194],[-58.11296,-32.31306],[-58.11296,-32.31398],[-58.11343,-32.3125],[-58.1138,-32.31241],[-58.1137,-32.31176],[-58.11426,-32.31139],[-58.11472,-32.31194],[-58.11481,-32.31167],[-58.11454,-32.3113],[-58.11407,-32.3113],[-58.11352,-32.31194]]],[[[-58.11176,-32.23093],[-58.11074,-32.23148],[-58.1113,-32.23148],[-58.11176,-32.23093]]],[[[-58.10306,-32.33778],[-58.10343,-32.33731],[-58.10343,-32.33648],[-58.10315,-32.33648],[-58.10333,-32.33713],[-58.10278,-32.33769],[-58.1025,-32.3375],[-58.10176,-32.3375],[-58.10185,-32.33759],[-58.10176,-32.33778],[-58.10204,-32.33796],[-58.10231,-32.33759],[-58.10241,-32.33778],[-58.10306,-32.33778]]],[[[-58.10491,-32.3363],[-58.10435,-32.33648],[-58.10435,-32.33685],[-58.10491,-32.3363]]],[[[-58.10583,-32.33111],[-58.10639,-32.32954],[-58.10676,-32.32944],[-58.10676,-32.32889],[-58.10713,-32.32972],[-58.10769,-32.32981],[-58.10787,-32.32963],[-58.10778,-32.3288],[-58.10769,-32.32963],[-58.10731,-32.32972],[-58.10676,-32.3287],[-58.10657,-32.32935],[-58.10593,-32.32972],[-58.10574,-32.33102],[-58.105,-32.33148],[-58.10528,-32.33167],[-58.10528,-32.3325],[-58.10537,-32.33157],[-58.10519,-32.33148],[-58.10583,-32.33111]]],[[[-58.10537,-32.33481],[-58.1062,-32.33398],[-58.1062,-32.33278],[-58.10537,-32.3325],[-58.10537,-32.33278],[-58.10611,-32.33287],[-58.10611,-32.33389],[-58.10537,-32.33481]]],[[[-58.10731,-32.32315],[-58.10704,-32.32296],[-58.10704,-32.325],[-58.10722,-32.32491],[-58.10731,-32.32315]]],[[[-58.10704,-32.325],[-58.10685,-32.3263],[-58.10731,-32.32685],[-58.10704,-32.32639],[-58.10704,-32.325]]],[[[-58.10769,-32.32815],[-58.10759,-32.32704],[-58.10731,-32.32685],[-58.1075,-32.32806],[-58.10769,-32.32815]]],[[[-58.10639,-32.32],[-58.10648,-32.3212],[-58.10676,-32.32185],[-58.10639,-32.32]]],[[[-58.10565,-32.31852],[-58.10444,-32.31769],[-58.10454,-32.31741],[-58.10398,-32.31787],[-58.10565,-32.31852]]],[[[-58.10667,-32.31944],[-58.10648,-32.31981],[-58.10676,-32.31963],[-58.10676,-32.31917],[-58.10593,-32.3187],[-58.10667,-32.31944]]],[[[-58.10259,-32.31185],[-58.10343,-32.31269],[-58.10324,-32.31222],[-58.10259,-32.31185]]],[[[-58.10556,-32.2638],[-58.10546,-32.26444],[-58.10574,-32.26472],[-58.10574,-32.26435],[-58.10556,-32.2638]]],[[[-58.10491,-32.25898],[-58.10472,-32.25806],[-58.10463,-32.25806],[-58.10463,-32.25889],[-58.10491,-32.25898]]],[[[-58.10722,-32.25],[-58.10713,-32.25028],[-58.10759,-32.25028],[-58.10759,-32.25009],[-58.10722,-32.25]]],[[[-58.09991,-32.23417],[-58.10065,-32.23454],[-58.10046,-32.23407],[-58.09991,-32.23417]]],[[[-58.10065,-32.22935],[-58.10083,-32.23009],[-58.10111,-32.22926],[-58.10102,-32.22852],[-58.10102,-32.22917],[-58.10065,-32.22935]]],[[[-58.10056,-32.22667],[-58.09991,-32.22685],[-58.10046,-32.22694],[-58.10093,-32.22657],[-58.10074,-32.22583],[-58.10028,-32.22593],[-58.10056,-32.22667]]],[[[-58.10204,-32.22648],[-58.1025,-32.22611],[-58.1025,-32.225],[-58.10287,-32.22472],[-58.10287,-32.22444],[-58.10407,-32.22426],[-58.10426,-32.22398],[-58.10269,-32.22426],[-58.10278,-32.22463],[-58.10194,-32.22509],[-58.10241,-32.22602],[-58.1012,-32.22731],[-58.10185,-32.2275],[-58.10204,-32.22648]]],[[[-58.10074,-32.22759],[-58.10046,-32.22796],[-58.10102,-32.22843],[-58.10083,-32.22787],[-58.1012,-32.22787],[-58.1012,-32.22731],[-58.10102,-32.22778],[-58.10074,-32.22759]]],[[[-58.1012,-32.22556],[-58.10157,-32.22519],[-58.1013,-32.22481],[-58.10102,-32.22509],[-58.1012,-32.22556]]],[[[-58.09741,-32.12093],[-58.09722,-32.11991],[-58.09713,-32.11991],[-58.09713,-32.12083],[-58.09741,-32.12093]]],[[[-58.10704,-32.10981],[-58.10685,-32.10935],[-58.10648,-32.10935],[-58.10639,-32.10907],[-58.10528,-32.10833],[-58.10481,-32.10833],[-58.10472,-32.1087],[-58.10426,-32.1087],[-58.10537,-32.10935],[-58.10593,-32.10935],[-58.10593,-32.10963],[-58.1063,-32.10963],[-58.10602,-32.10944],[-58.1063,-32.10917],[-58.10639,-32.10944],[-58.10685,-32.10954],[-58.10667,-32.10991],[-58.10806,-32.11046],[-58.10778,-32.11],[-58.10704,-32.10981]]],[[[-58.10861,-32.11056],[-58.10815,-32.11074],[-58.10907,-32.11102],[-58.10861,-32.11056]]],[[[-58.10306,-32.10824],[-58.1037,-32.10815],[-58.10269,-32.10787],[-58.10306,-32.10824]]],[[[-58.10065,-32.10676],[-58.10019,-32.10741],[-58.10093,-32.10778],[-58.10139,-32.10759],[-58.10139,-32.10731],[-58.10083,-32.10741],[-58.10102,-32.10676],[-58.10148,-32.10685],[-58.10139,-32.10657],[-58.10056,-32.10657],[-58.10037,-32.1063],[-58.09963,-32.1063],[-58.10028,-32.10639],[-58.10065,-32.10676]]],[[[-58.0962,-32.30657],[-58.0975,-32.30769],[-58.09759,-32.30843],[-58.09759,-32.3075],[-58.09731,-32.30704],[-58.09676,-32.30657],[-58.0962,-32.30657]]],[[[-58.0962,-32.3062],[-58.09611,-32.30556],[-58.09583,-32.30546],[-58.09593,-32.30602],[-58.0962,-32.3062]]],[[[-58.09556,-32.30546],[-58.09565,-32.30509],[-58.09481,-32.30454],[-58.09481,-32.30519],[-58.09537,-32.305],[-58.09556,-32.30546]]],[[[-58.09519,-32.30241],[-58.09509,-32.30259],[-58.09565,-32.30296],[-58.09565,-32.30278],[-58.09519,-32.30241]]],[[[-58.09148,-32.29324],[-58.09176,-32.29611],[-58.09167,-32.29324],[-58.09148,-32.29324]]],[[[-58.09093,-32.29194],[-58.0912,-32.29176],[-58.09111,-32.29102],[-58.09093,-32.29102],[-58.09093,-32.29194]]],[[[-58.09065,-32.28898],[-58.09037,-32.2888],[-58.09065,-32.28991],[-58.09065,-32.28898]]],[[[-58.09037,-32.28731],[-58.09139,-32.2862],[-58.09139,-32.28565],[-58.09176,-32.28546],[-58.09176,-32.285],[-58.09231,-32.28463],[-58.09231,-32.28417],[-58.09324,-32.28389],[-58.09343,-32.28324],[-58.09315,-32.2837],[-58.09259,-32.28361],[-58.09222,-32.28407],[-58.09222,-32.28454],[-58.09111,-32.28565],[-58.0913,-32.28602],[-58.09037,-32.28731]]],[[[-58.09481,-32.27667],[-58.09565,-32.27519],[-58.09565,-32.27463],[-58.09481,-32.27667]]],[[[-58.09389,-32.27991],[-58.09454,-32.27861],[-58.09481,-32.27667],[-58.09426,-32.27769],[-58.09444,-32.27852],[-58.09398,-32.2787],[-58.09398,-32.27935],[-58.09333,-32.28009],[-58.09333,-32.28074],[-58.09343,-32.28074],[-58.09352,-32.28056],[-58.09352,-32.28009],[-58.09389,-32.27991]]],[[[-58.09315,-32.28259],[-58.09343,-32.28315],[-58.09343,-32.28148],[-58.09315,-32.28259]]],[[[-58.09648,-32.26944],[-58.09602,-32.27009],[-58.09639,-32.27056],[-58.0962,-32.27167],[-58.09648,-32.27139],[-58.09667,-32.26917],[-58.09611,-32.26861],[-58.09648,-32.26944]]],[[[-58.09648,-32.26694],[-58.09648,-32.26778],[-58.09667,-32.26778],[-58.09676,-32.26713],[-58.09648,-32.26694]]],[[[-58.09685,-32.26435],[-58.09648,-32.26593],[-58.09676,-32.26574],[-58.09685,-32.26435]]],[[[-58.09593,-32.26352],[-58.09685,-32.26426],[-58.09676,-32.2638],[-58.09593,-32.26352]]],[[[-58.09565,-32.26222],[-58.09574,-32.26269],[-58.09593,-32.26287],[-58.09593,-32.26241],[-58.09565,-32.26222]]],[[[-58.09556,-32.25963],[-58.09519,-32.26148],[-58.09528,-32.26185],[-58.09565,-32.26037],[-58.09556,-32.25963]]],[[[-58.0937,-32.25481],[-58.09398,-32.25296],[-58.09343,-32.25472],[-58.09343,-32.25602],[-58.09398,-32.2575],[-58.0937,-32.25481]]],[[[-58.09481,-32.2512],[-58.09481,-32.25065],[-58.09528,-32.25065],[-58.09537,-32.25009],[-58.09519,-32.25046],[-58.09481,-32.25009],[-58.09472,-32.25028],[-58.09481,-32.2512]]],[[[-58.09565,-32.23713],[-58.09537,-32.23731],[-58.09556,-32.23778],[-58.09565,-32.23778],[-58.09565,-32.23713]]],[[[-58.0938,-32.23111],[-58.09444,-32.2312],[-58.09491,-32.23083],[-58.09454,-32.23074],[-58.09435,-32.23111],[-58.0938,-32.23111]]],[[[-58.09407,-32.10343],[-58.09426,-32.10315],[-58.09315,-32.10343],[-58.09407,-32.10343]]],[[[-58.08472,-32.23028],[-58.08481,-32.23213],[-58.08509,-32.23213],[-58.08565,-32.23352],[-58.0862,-32.23407],[-58.0875,-32.23407],[-58.08833,-32.23324],[-58.08926,-32.23343],[-58.08926,-32.23713],[-58.08981,-32.23824],[-58.08981,-32.23935],[-58.08926,-32.24056],[-58.08843,-32.2412],[-58.08787,-32.24241],[-58.08694,-32.24343],[-58.08528,-32.2437],[-58.08435,-32.24287],[-58.08407,-32.24176],[-58.08296,-32.24056],[-58.08296,-32.23981],[-58.08167,-32.23898],[-58.08056,-32.23898],[-58.08046,-32.2387],[-58.07926,-32.2387],[-58.07898,-32.23898],[-58.07843,-32.2387],[-58.07824,-32.23898],[-58.07676,-32.23898],[-58.07667,-32.23926],[-58.07509,-32.23926],[-58.075,-32.23954],[-58.07417,-32.23926],[-58.07389,-32.23954],[-58.07269,-32.23963],[-58.07685,-32.23963],[-58.07704,-32.23935],[-58.07889,-32.23917],[-58.07935,-32.23926],[-58.07926,-32.23963],[-58.0812,-32.23935],[-58.08213,-32.23972],[-58.08259,-32.24028],[-58.08315,-32.24111],[-58.08315,-32.24213],[-58.08361,-32.24222],[-58.0837,-32.24324],[-58.08398,-32.24324],[-58.08417,-32.2438],[-58.08472,-32.24407],[-58.08694,-32.24407],[-58.08741,-32.2438],[-58.08907,-32.24139],[-58.09083,-32.24019],[-58.09046,-32.23981],[-58.09046,-32.23815],[-58.09019,-32.23815],[-58.09019,-32.23565],[-58.09056,-32.23528],[-58.09074,-32.23315],[-58.09176,-32.2325],[-58.09296,-32.23278],[-58.09361,-32.23241],[-58.09333,-32.23222],[-58.09343,-32.2312],[-58.09231,-32.23176],[-58.09148,-32.23176],[-58.09093,-32.23231],[-58.08843,-32.23231],[-58.08833,-32.23306],[-58.08667,-32.23389],[-58.08556,-32.23269],[-58.08528,-32.23194],[-58.08519,-32.23074],[-58.08546,-32.23009],[-58.08472,-32.23028]]],[[[-58.08426,-32.23056],[-58.08417,-32.23019],[-58.0837,-32.23028],[-58.08389,-32.23065],[-58.08426,-32.23056]]],[[[-58.08472,-32.12852],[-58.0837,-32.12852],[-58.0837,-32.12861],[-58.08481,-32.1288],[-58.08472,-32.12852]]],[[[-58.07981,-32.12741],[-58.07972,-32.12713],[-58.07898,-32.12685],[-58.07917,-32.12722],[-58.07981,-32.12741]]],[[[-58.08954,-32.12648],[-58.08611,-32.12648],[-58.08556,-32.12676],[-58.08944,-32.12676],[-58.08954,-32.12648]]],[[[-58.08296,-32.12593],[-58.08315,-32.1262],[-58.08407,-32.1262],[-58.08296,-32.12593]]],[[[-58.08509,-32.12648],[-58.08463,-32.1262],[-58.08407,-32.1262],[-58.08417,-32.12639],[-58.08509,-32.12648]]],[[[-58.07528,-32.12481],[-58.07602,-32.12481],[-58.07685,-32.12583],[-58.07713,-32.12583],[-58.07731,-32.12648],[-58.07843,-32.12657],[-58.07833,-32.1263],[-58.07731,-32.12611],[-58.07731,-32.12583],[-58.07611,-32.12463],[-58.07556,-32.12463],[-58.07509,-32.12417],[-58.07528,-32.12481]]],[[[-58.07361,-32.12269],[-58.0725,-32.1213],[-58.07231,-32.1213],[-58.07324,-32.1225],[-58.07361,-32.12269]]],[[[-58.07407,-32.12296],[-58.07398,-32.12315],[-58.07454,-32.12352],[-58.07454,-32.12333],[-58.07407,-32.12296]]],[[[-58.06713,-32.11315],[-58.06583,-32.11231],[-58.06676,-32.11315],[-58.06713,-32.11315]]],[[[-58.06833,-32.1137],[-58.0687,-32.11417],[-58.06907,-32.11426],[-58.0688,-32.1138],[-58.06833,-32.1137]]],[[[-58.06083,-32.10917],[-58.05991,-32.10898],[-58.06009,-32.10926],[-58.06074,-32.10926],[-58.06083,-32.10972],[-58.0613,-32.10981],[-58.06083,-32.10917]]],[[[-58.06167,-32.11009],[-58.06231,-32.11065],[-58.06269,-32.11065],[-58.06222,-32.11019],[-58.06167,-32.11009]]],[[[-58.05731,-32.11046],[-58.05685,-32.10991],[-58.05648,-32.10972],[-58.05704,-32.11046],[-58.05731,-32.11046]]],[[[-58.09009,-32.1062],[-58.08917,-32.10778],[-58.08935,-32.10833],[-58.08898,-32.10852],[-58.08917,-32.11056],[-58.08917,-32.1087],[-58.08944,-32.10861],[-58.08935,-32.10787],[-58.08972,-32.10778],[-58.09009,-32.1062]]],[[[-58.05343,-32.10685],[-58.0525,-32.10546],[-58.05222,-32.10546],[-58.05343,-32.10685]]],[[[-58.05111,-32.10139],[-58.0513,-32.10093],[-58.05102,-32.10046],[-58.05111,-32.10139]]]]}}]}